{
  "type": "FeatureCollection",
  "name": "events",
  "crs": {
    "type": "name",
    "properties": {
      "name": "urn:ogc:def:crs:OGC:1.3:CRS84"
    }
  },
  "features": [
    {
      "type": "Feature",
      "properties": {
        "EVENT_ID": 1,
        "ΠΑΡΑΚΤΙΑ_ΠΕΡΙΟΧΗ": "Παραλιακό μέτωπο Καρδάμαινας",
        "ΑΠΟΚΕΝΤΡΩΜΕΝΗ_ΔΙΟΙΚΗΣΗ": "Αιγαίο",
        "ΠΕΡΙΦΕΡΕΙΑ": "Νότιο Αιγαίο",
        "ΠΕΡΙΦΕΡΕΙΑΚΗ_ΕΝΟΤΗΤΑ": "Κως",
        "ΔΗΜΟΣ": "Κως",
        "ΔΗΜΟΤΙΚΗ_ΕΝΟΤΗΤΑ": "Ηρακλείδες",
        "ΚΟΙΝΟΤΗΤΑ": "Καρδάμαινα",
        "ΕΝΤΟΣ_NATURA2000": "NO",
        "EVENT_CLASS": "Standard",
        "EVENT_SCORE": 1,
        "NATURA2000_ΚΩΔΙΚΟΣ": "nan",
        "NATURA2000_ΟΝΟΜΑ": "nan",
        "ΑΔΑ_ΚΩΔΙΚΟΣ": "63ΠΕ46ΝΠΙΘ-6ΔΛ",
        "ΑΔΑ_ΔΙΟΙΚΗΤΙΚΗ_ΜΟΝΑΔΑ": "Δημοτική Κοινότητα Καρδάμαινας (Δ.Ε. Ηρακλειδών), Δήμος Κω",
        "ΗΜΕΡΟΜΗΝΙΑ_ΣΥΜΒΑΝΤΟΣ": "16/02/2026",
        "ΗΜΕΡΟΜΗΝΙΑ_ΚΗΡΥΞΗΣ": "17/02/2026",
        "ΔΙΑΡΚΕΙΑ_ΕΚΤΑΚΤΗΣ_ΑΝΑΓΚΗΣ": "3 months",
        "ΠΕΡΙΓΡΑΦΗ_ΖΗΜΙΩΝ": "Σοβαρή διάβρωση στο παραλιακό μέτωπο της Καρδάμαινας, υποχώρηση ακτογραμμής, ζημιές σε οδόστρωμα/πεζοδρόμια και δίκτυα υποδομών.",
        "SHORT_DAMAGE": "Σοβαρή διάβρωση στο παραλιακό μέτωπο της Καρδάμαινας, υποχώρηση ακτογραμμής, ζημιές σε οδόστρωμα/πεζοδρόμια και δίκτυα υποδομών",
        "IMAGE_PREFIX": "1",
        "NATURA2000_ΤΥΠΟΣ": "nan",
        "NATURA2000_ΑΠΟΣΤΑΣΗ_M": ""
      },
      "geometry": {
        "type": "Point",
        "coordinates": [
          27.14231,
          36.7803
        ]
      }
    },
    {
      "type": "Feature",
      "properties": {
        "EVENT_ID": 2,
        "ΠΑΡΑΚΤΙΑ_ΠΕΡΙΟΧΗ": "Παραλία Ακρωτηρίου",
        "ΑΠΟΚΕΝΤΡΩΜΕΝΗ_ΔΙΟΙΚΗΣΗ": "Αιγαίο",
        "ΠΕΡΙΦΕΡΕΙΑ": "Νότιο Αιγαίο",
        "ΠΕΡΙΦΕΡΕΙΑΚΗ_ΕΝΟΤΗΤΑ": "Θήρα",
        "ΔΗΜΟΣ": "Θήρα",
        "ΔΗΜΟΤΙΚΗ_ΕΝΟΤΗΤΑ": "Θήρα",
        "ΚΟΙΝΟΤΗΤΑ": "Ακρωτήρι",
        "ΕΝΤΟΣ_NATURA2000": "NO",
        "EVENT_CLASS": "Standard",
        "EVENT_SCORE": 1,
        "NATURA2000_ΚΩΔΙΚΟΣ": "nan",
        "NATURA2000_ΟΝΟΜΑ": "nan",
        "ΑΔΑ_ΚΩΔΙΚΟΣ": "65ΚΨ46ΝΠΙΘ-Ψ3Ζ",
        "ΑΔΑ_ΔΙΟΙΚΗΤΙΚΗ_ΜΟΝΑΔΑ": "Δημοτική Κοινότητα Θηρασίας (Δ.Ε. Οίας), Δ.Κ. Ακρωτηρίου, Μεγαλοχωρίου, Εμπορείου (Δ.Ε. Θήρας), Δήμος Θήρας",
        "ΗΜΕΡΟΜΗΝΙΑ_ΣΥΜΒΑΝΤΟΣ": "10/02/2026",
        "ΗΜΕΡΟΜΗΝΙΑ_ΚΗΡΥΞΗΣ": "19/02/2026",
        "ΔΙΑΡΚΕΙΑ_ΕΚΤΑΚΤΗΣ_ΑΝΑΓΚΗΣ": "6 months",
        "ΠΕΡΙΓΡΑΦΗ_ΖΗΜΙΩΝ": "Έντονη παράκτια διάβρωση, απώλεια αμμουδιού/παραλίας (Ακρωτήρι), ζημιές σε οδούς και παραθαλάσσια κτίρια λόγω κυματισμού (7-8 Bofor) και βροχοπτώσεων.",
        "SHORT_DAMAGE": "Έντονη παράκτια διάβρωση, απώλεια αμμουδιού/παραλίας (Ακρωτήρι), ζημιές σε οδούς και παραθαλάσσια κτίρια λόγω κυματισμού (7-8 Bofor) και βροχοπτώσεων",
        "IMAGE_PREFIX": "2",
        "NATURA2000_ΤΥΠΟΣ": "nan",
        "NATURA2000_ΑΠΟΣΤΑΣΗ_M": ""
      },
      "geometry": {
        "type": "Point",
        "coordinates": [
          25.37220394583485,
          36.45734508762968
        ]
      }
    },
    {
      "type": "Feature",
      "properties": {
        "EVENT_ID": 3,
        "ΠΑΡΑΚΤΙΑ_ΠΕΡΙΟΧΗ": "Ακτές Εμπορείου (Περίβολος)",
        "ΑΠΟΚΕΝΤΡΩΜΕΝΗ_ΔΙΟΙΚΗΣΗ": "Αιγαίο",
        "ΠΕΡΙΦΕΡΕΙΑ": "Νότιο Αιγαίο",
        "ΠΕΡΙΦΕΡΕΙΑΚΗ_ΕΝΟΤΗΤΑ": "Θήρα",
        "ΔΗΜΟΣ": "Θήρα",
        "ΔΗΜΟΤΙΚΗ_ΕΝΟΤΗΤΑ": "Θήρα",
        "ΚΟΙΝΟΤΗΤΑ": "Εμπορείο",
        "ΕΝΤΟΣ_NATURA2000": "NO",
        "EVENT_CLASS": "Standard",
        "EVENT_SCORE": 1,
        "NATURA2000_ΚΩΔΙΚΟΣ": "nan",
        "NATURA2000_ΟΝΟΜΑ": "nan",
        "ΑΔΑ_ΚΩΔΙΚΟΣ": "65ΚΨ46ΝΠΙΘ-Ψ3Ζ",
        "ΑΔΑ_ΔΙΟΙΚΗΤΙΚΗ_ΜΟΝΑΔΑ": "Δημοτική Κοινότητα Θηρασίας (Δ.Ε. Οίας), Δ.Κ. Ακρωτηρίου, Μεγαλοχωρίου, Εμπορείου (Δ.Ε. Θήρας), Δήμος Θήρας",
        "ΗΜΕΡΟΜΗΝΙΑ_ΣΥΜΒΑΝΤΟΣ": "10/02/2026",
        "ΗΜΕΡΟΜΗΝΙΑ_ΚΗΡΥΞΗΣ": "19/02/2026",
        "ΔΙΑΡΚΕΙΑ_ΕΚΤΑΚΤΗΣ_ΑΝΑΓΚΗΣ": "6 months",
        "ΠΕΡΙΓΡΑΦΗ_ΖΗΜΙΩΝ": "Έντονη παράκτια διάβρωση, απώλεια αμμουδιού/παραλίας (Εμπορείο/Περίβολος), ζημιές σε οδούς και παραθαλάσσια κτίρια λόγω κυματισμού (7-8 Bofor) και βροχοπτώσεων.",
        "SHORT_DAMAGE": "Έντονη παράκτια διάβρωση, απώλεια αμμουδιού/παραλίας (Εμπορείο/Περίβολος), ζημιές σε οδούς και παραθαλάσσια κτίρια λόγω κυματισμού (7-8 Bofor) και βροχοπτώσεων",
        "IMAGE_PREFIX": "3",
        "NATURA2000_ΤΥΠΟΣ": "nan",
        "NATURA2000_ΑΠΟΣΤΑΣΗ_M": ""
      },
      "geometry": {
        "type": "Point",
        "coordinates": [
          25.45956,
          36.34207
        ]
      }
    },
    {
      "type": "Feature",
      "properties": {
        "EVENT_ID": 4,
        "ΠΑΡΑΚΤΙΑ_ΠΕΡΙΟΧΗ": "Ακτές Μεγαλοχωρίου (Βλυχάδα)",
        "ΑΠΟΚΕΝΤΡΩΜΕΝΗ_ΔΙΟΙΚΗΣΗ": "Αιγαίο",
        "ΠΕΡΙΦΕΡΕΙΑ": "Νότιο Αιγαίο",
        "ΠΕΡΙΦΕΡΕΙΑΚΗ_ΕΝΟΤΗΤΑ": "Θήρα",
        "ΔΗΜΟΣ": "Θήρα",
        "ΔΗΜΟΤΙΚΗ_ΕΝΟΤΗΤΑ": "Θήρα",
        "ΚΟΙΝΟΤΗΤΑ": "Μεγαλοχώρι",
        "ΕΝΤΟΣ_NATURA2000": "NO",
        "EVENT_CLASS": "Standard",
        "EVENT_SCORE": 1,
        "NATURA2000_ΚΩΔΙΚΟΣ": "nan",
        "NATURA2000_ΟΝΟΜΑ": "nan",
        "ΑΔΑ_ΚΩΔΙΚΟΣ": "65ΚΨ46ΝΠΙΘ-Ψ3Ζ",
        "ΑΔΑ_ΔΙΟΙΚΗΤΙΚΗ_ΜΟΝΑΔΑ": "Δημοτική Κοινότητα Θηρασίας (Δ.Ε. Οίας), Δ.Κ. Ακρωτηρίου, Μεγαλοχωρίου, Εμπορείου (Δ.Ε. Θήρας), Δήμος Θήρας",
        "ΗΜΕΡΟΜΗΝΙΑ_ΣΥΜΒΑΝΤΟΣ": "10/02/2026",
        "ΗΜΕΡΟΜΗΝΙΑ_ΚΗΡΥΞΗΣ": "19/02/2026",
        "ΔΙΑΡΚΕΙΑ_ΕΚΤΑΚΤΗΣ_ΑΝΑΓΚΗΣ": "6 months",
        "ΠΕΡΙΓΡΑΦΗ_ΖΗΜΙΩΝ": "Έντονη παράκτια διάβρωση, απώλεια αμμουδιού/παραλίας (Βλυχάδα), ζημιές σε οδούς και παραθαλάσσια κτίρια λόγω κυματισμού (7-8 Bofor) και βροχοπτώσεων.",
        "SHORT_DAMAGE": "Έντονη παράκτια διάβρωση, απώλεια αμμουδιού/παραλίας (Βλυχάδα), ζημιές σε οδούς και παραθαλάσσια κτίρια λόγω κυματισμού (7-8 Bofor) και βροχοπτώσεων",
        "IMAGE_PREFIX": "4",
        "NATURA2000_ΤΥΠΟΣ": "nan",
        "NATURA2000_ΑΠΟΣΤΑΣΗ_M": ""
      },
      "geometry": {
        "type": "Point",
        "coordinates": [
          25.43106,
          36.33998
        ]
      }
    },
    {
      "type": "Feature",
      "properties": {
        "EVENT_ID": 5,
        "ΠΑΡΑΚΤΙΑ_ΠΕΡΙΟΧΗ": "Παραλία Όρμου Κορθίου & λιμάνι Χώρας",
        "ΑΠΟΚΕΝΤΡΩΜΕΝΗ_ΔΙΟΙΚΗΣΗ": "Αιγαίο",
        "ΠΕΡΙΦΕΡΕΙΑ": "Νότιο Αιγαίο",
        "ΠΕΡΙΦΕΡΕΙΑΚΗ_ΕΝΟΤΗΤΑ": "Άνδρος",
        "ΔΗΜΟΣ": "Άνδρος",
        "ΔΗΜΟΤΙΚΗ_ΕΝΟΤΗΤΑ": "Κόρθι; Άνδρος",
        "ΚΟΙΝΟΤΗΤΑ": "Όρμος Κορθίου; Άνδρος",
        "ΕΝΤΟΣ_NATURA2000": "YES",
        "EVENT_CLASS": "Natura High",
        "EVENT_SCORE": 3,
        "NATURA2000_ΚΩΔΙΚΟΣ": "GR4220028",
        "NATURA2000_ΟΝΟΜΑ": "Άνδρος: Κεντρικό & νότιο τμήμα, γύρω νησίδες & Παράκτια Θαλάσσια Ζώνη",
        "ΑΔΑ_ΚΩΔΙΚΟΣ": "6Σ9Δ46ΝΠΙΘ-ΠΤΖ",
        "ΑΔΑ_ΔΙΟΙΚΗΤΙΚΗ_ΜΟΝΑΔΑ": "Δήμος Άνδρου (Δ.Ε. Άνδρου, Κορθίου)",
        "ΗΜΕΡΟΜΗΝΙΑ_ΣΥΜΒΑΝΤΟΣ": "14/02/2026",
        "ΗΜΕΡΟΜΗΝΙΑ_ΚΗΡΥΞΗΣ": "24/02/2026",
        "ΔΙΑΡΚΕΙΑ_ΕΚΤΑΚΤΗΣ_ΑΝΑΓΚΗΣ": "3 months",
        "ΠΕΡΙΓΡΑΦΗ_ΖΗΜΙΩΝ": "Σοβαρή διάβρωση στην παραλία Όρμου-Κορθίου (σπάσιμο βράχων, φθορά πεζοδρομίου), ζημιές στο λιμάνι της Χώρας, μετακίνηση άμμου. Κατολισθήσεις σε παράκτιους δρόμους.",
        "SHORT_DAMAGE": "Σοβαρή διάβρωση στην παραλία Όρμου-Κορθίου (σπάσιμο βράχων, φθορά πεζοδρομίου), ζημιές στο λιμάνι της Χώρας, μετακίνηση άμμου",
        "IMAGE_PREFIX": "5",
        "NATURA2000_ΤΥΠΟΣ": "SPA",
        "NATURA2000_ΑΠΟΣΤΑΣΗ_M": 1675
      },
      "geometry": {
        "type": "Point",
        "coordinates": [
          24.95093,
          37.77439
        ]
      }
    },
    {
      "type": "Feature",
      "properties": {
        "EVENT_ID": 6,
        "ΠΑΡΑΚΤΙΑ_ΠΕΡΙΟΧΗ": "Παραλιακό μέτωπο Αντιπάρου",
        "ΑΠΟΚΕΝΤΡΩΜΕΝΗ_ΔΙΟΙΚΗΣΗ": "Αιγαίο",
        "ΠΕΡΙΦΕΡΕΙΑ": "Νότιο Αιγαίο",
        "ΠΕΡΙΦΕΡΕΙΑΚΗ_ΕΝΟΤΗΤΑ": "Πάρος",
        "ΔΗΜΟΣ": "Αντίπαρος",
        "ΔΗΜΟΤΙΚΗ_ΕΝΟΤΗΤΑ": "Αντίπαρος",
        "ΚΟΙΝΟΤΗΤΑ": "Αντίπαρος",
        "ΕΝΤΟΣ_NATURA2000": "NO",
        "EVENT_CLASS": "Standard",
        "EVENT_SCORE": 1,
        "NATURA2000_ΚΩΔΙΚΟΣ": "nan",
        "NATURA2000_ΟΝΟΜΑ": "nan",
        "ΑΔΑ_ΚΩΔΙΚΟΣ": "9Γ6Α46ΝΠΙΘ-ΟΕΘ",
        "ΑΔΑ_ΔΙΟΙΚΗΤΙΚΗ_ΜΟΝΑΔΑ": "Δήμος Αντιπάρου",
        "ΗΜΕΡΟΜΗΝΙΑ_ΣΥΜΒΑΝΤΟΣ": "14/02/2026",
        "ΗΜΕΡΟΜΗΝΙΑ_ΚΗΡΥΞΗΣ": "16/02/2026",
        "ΔΙΑΡΚΕΙΑ_ΕΚΤΑΚΤΗΣ_ΑΝΑΓΚΗΣ": "3 months",
        "ΠΕΡΙΓΡΑΦΗ_ΖΗΜΙΩΝ": "Παράκτια διάβρωση από έντονα καιρικά φαινόμενα.",
        "SHORT_DAMAGE": "Παράκτια διάβρωση από έντονα καιρικά φαινόμενα",
        "IMAGE_PREFIX": "6",
        "NATURA2000_ΤΥΠΟΣ": "nan",
        "NATURA2000_ΑΠΟΣΤΑΣΗ_M": ""
      },
      "geometry": {
        "type": "Point",
        "coordinates": [
          25.07619,
          37.04205
        ]
      }
    },
    {
      "type": "Feature",
      "properties": {
        "EVENT_ID": 7,
        "ΠΑΡΑΚΤΙΑ_ΠΕΡΙΟΧΗ": "Παραλιακός δρόμος Μακρυλιές-Λάκκωμα",
        "ΑΠΟΚΕΝΤΡΩΜΕΝΗ_ΔΙΟΙΚΗΣΗ": "Μακεδονία - Θράκη",
        "ΠΕΡΙΦΕΡΕΙΑ": "Ανατολική Μακεδονία & Θράκη",
        "ΠΕΡΙΦΕΡΕΙΑΚΗ_ΕΝΟΤΗΤΑ": "Έβρος",
        "ΔΗΜΟΣ": "Σαμοθράκη",
        "ΔΗΜΟΤΙΚΗ_ΕΝΟΤΗΤΑ": "Σαμοθράκη",
        "ΚΟΙΝΟΤΗΤΑ": "Σαμοθράκη",
        "ΕΝΤΟΣ_NATURA2000": "YES",
        "EVENT_CLASS": "Natura High",
        "EVENT_SCORE": 3,
        "NATURA2000_ΚΩΔΙΚΟΣ": "GR1110012",
        "NATURA2000_ΟΝΟΜΑ": "Σαμοθράκη: όρος Φεγγάρι & Παράκτια Ζώνη",
        "ΑΔΑ_ΚΩΔΙΚΟΣ": "9ΕΡΓ46ΝΠΙΘ-ΩΗΦ",
        "ΑΔΑ_ΔΙΟΙΚΗΤΙΚΗ_ΜΟΝΑΔΑ": "Δήμος Σαμοθράκης",
        "ΗΜΕΡΟΜΗΝΙΑ_ΣΥΜΒΑΝΤΟΣ": "05/02/2026",
        "ΗΜΕΡΟΜΗΝΙΑ_ΚΗΡΥΞΗΣ": "11/02/2026",
        "ΔΙΑΡΚΕΙΑ_ΕΚΤΑΚΤΗΣ_ΑΝΑΓΚΗΣ": "3 months",
        "ΠΕΡΙΓΡΑΦΗ_ΖΗΜΙΩΝ": "Κλείσιμο παραλιακού δρόμου Μακρυλιές-Λάκκωμα, θυελλώδεις νοτιάδες 11 μποφόρ, κύμα 60 μέτρων στη στεριά, πτώσεις δέντρων/κολωνών, διακοπές ηλεκτροδότησης.",
        "SHORT_DAMAGE": "Κλείσιμο παραλιακού δρόμου Μακρυλιές-Λάκκωμα, θυελλώδεις νοτιάδες 11 μποφόρ, κύμα 60 μέτρων στη στεριά, πτώσεις δέντρων/κολωνών, διακοπές ηλεκτροδότησης",
        "IMAGE_PREFIX": "7",
        "NATURA2000_ΤΥΠΟΣ": "SPA",
        "NATURA2000_ΑΠΟΣΤΑΣΗ_M": 0
      },
      "geometry": {
        "type": "Point",
        "coordinates": [
          25.51475,
          40.42435
        ]
      }
    },
    {
      "type": "Feature",
      "properties": {
        "EVENT_ID": 8,
        "ΠΑΡΑΚΤΙΑ_ΠΕΡΙΟΧΗ": "Παραλιακό μέτωπο Μάνδρας-Αβδήρων",
        "ΑΠΟΚΕΝΤΡΩΜΕΝΗ_ΔΙΟΙΚΗΣΗ": "Μακεδονία - Θράκη",
        "ΠΕΡΙΦΕΡΕΙΑ": "Ανατολική Μακεδονία & Θράκη",
        "ΠΕΡΙΦΕΡΕΙΑΚΗ_ΕΝΟΤΗΤΑ": "Ξάνθη",
        "ΔΗΜΟΣ": "Άβδηρα",
        "ΔΗΜΟΤΙΚΗ_ΕΝΟΤΗΤΑ": "Άβδηρα",
        "ΚΟΙΝΟΤΗΤΑ": "Μάνδρα; Άβδηρα",
        "ΕΝΤΟΣ_NATURA2000": "NO",
        "EVENT_CLASS": "Standard",
        "EVENT_SCORE": 1,
        "NATURA2000_ΚΩΔΙΚΟΣ": "nan",
        "NATURA2000_ΟΝΟΜΑ": "nan",
        "ΑΔΑ_ΚΩΔΙΚΟΣ": "9ΜΚΤ46ΝΠΙΘ-ΩΤΣ",
        "ΑΔΑ_ΔΙΟΙΚΗΤΙΚΗ_ΜΟΝΑΔΑ": "Δημοτικές Κοινότητες Μάνδρας και Αβδήρων (Δ.Ε. Αβδήρων), Δήμος Αβδήρων",
        "ΗΜΕΡΟΜΗΝΙΑ_ΣΥΜΒΑΝΤΟΣ": "14/02/2026",
        "ΗΜΕΡΟΜΗΝΙΑ_ΚΗΡΥΞΗΣ": "17/02/2026",
        "ΔΙΑΡΚΕΙΑ_ΕΚΤΑΚΤΗΣ_ΑΝΑΓΚΗΣ": "3 months",
        "ΠΕΡΙΓΡΑΦΗ_ΖΗΜΙΩΝ": "Εκτεταμένες καταστροφές στο παραλιακό οδικό δίκτυο, κατολισθήσεις και φθορές σε παραθαλάσσιες εγκαταστάσεις.",
        "SHORT_DAMAGE": "Εκτεταμένες καταστροφές στο παραλιακό οδικό δίκτυο, κατολισθήσεις και φθορές σε παραθαλάσσιες εγκαταστάσεις",
        "IMAGE_PREFIX": "8",
        "NATURA2000_ΤΥΠΟΣ": "nan",
        "NATURA2000_ΑΠΟΣΤΑΣΗ_M": ""
      },
      "geometry": {
        "type": "Point",
        "coordinates": [
          25.01331,
          40.96839
        ]
      }
    },
    {
      "type": "Feature",
      "properties": {
        "EVENT_ID": 9,
        "ΠΑΡΑΚΤΙΑ_ΠΕΡΙΟΧΗ": "Παραλία Πλάκα",
        "ΑΠΟΚΕΝΤΡΩΜΕΝΗ_ΔΙΟΙΚΗΣΗ": "Αιγαίο",
        "ΠΕΡΙΦΕΡΕΙΑ": "Νότιο Αιγαίο",
        "ΠΕΡΙΦΕΡΕΙΑΚΗ_ΕΝΟΤΗΤΑ": "Νάξος",
        "ΔΗΜΟΣ": "Νάξος & Μικρές Κυκλάδες",
        "ΔΗΜΟΤΙΚΗ_ΕΝΟΤΗΤΑ": "Νάξος",
        "ΚΟΙΝΟΤΗΤΑ": "Άγιος Αρσένιος",
        "ΕΝΤΟΣ_NATURA2000": "YES",
        "EVENT_CLASS": "Natura High",
        "EVENT_SCORE": 3,
        "NATURA2000_ΚΩΔΙΚΟΣ": "GR4220014",
        "NATURA2000_ΟΝΟΜΑ": "Κεντρική & Νότια Νάξος (Θαλάσσια Ζώνη Όρμου Καράδες - Όρμου Μουτσούνας)",
        "ΑΔΑ_ΚΩΔΙΚΟΣ": "9Ν4Ω46ΝΠΙΘ-ΨΨ0",
        "ΑΔΑ_ΔΙΟΙΚΗΤΙΚΗ_ΜΟΝΑΔΑ": "Δημοτικές Κοινότητες Απεράθου (Δ.Ε. Δρυμαλίας) και Αγίου Αρσενίου (Δ.Ε. Νάξου), Δήμος Νάξου",
        "ΗΜΕΡΟΜΗΝΙΑ_ΣΥΜΒΑΝΤΟΣ": "14/02/2026",
        "ΗΜΕΡΟΜΗΝΙΑ_ΚΗΡΥΞΗΣ": "16/02/2026",
        "ΔΙΑΡΚΕΙΑ_ΕΚΤΑΚΤΗΣ_ΑΝΑΓΚΗΣ": "3 months",
        "ΠΕΡΙΓΡΑΦΗ_ΖΗΜΙΩΝ": "Παράκτια διάβρωση στην παραλία Πλάκα (Άγιος Αρσένιος, υποχώρηση δρόμου Αγ. Προκοπίου - Αγ. Άννας, αποκάλυψη δικτύων) και σοβαρές ζημιές στο παράκτιο οδικό δίκτυο.",
        "SHORT_DAMAGE": "Παράκτια διάβρωση στην παραλία Πλάκα (Άγιος Αρσένιος, υποχώρηση δρόμου Αγ. Προκοπίου - Αγ. Άννας, αποκάλυψη δικτύων)",
        "IMAGE_PREFIX": "9",
        "NATURA2000_ΤΥΠΟΣ": "SCI/SAC",
        "NATURA2000_ΑΠΟΣΤΑΣΗ_M": 0
      },
      "geometry": {
        "type": "Point",
        "coordinates": [
          25.36191,
          37.05585
        ]
      }
    },
    {
      "type": "Feature",
      "properties": {
        "EVENT_ID": 11,
        "ΠΑΡΑΚΤΙΑ_ΠΕΡΙΟΧΗ": "Παραλιακή ζώνη Σπίθι Σκάλας",
        "ΑΠΟΚΕΝΤΡΩΜΕΝΗ_ΔΙΟΙΚΗΣΗ": "Πελοπόννησος, Δυτική Ελλάδα & Ιόνιο",
        "ΠΕΡΙΦΕΡΕΙΑ": "Ιόνια Νησιά",
        "ΠΕΡΙΦΕΡΕΙΑΚΗ_ΕΝΟΤΗΤΑ": "Κεφαλληνία",
        "ΔΗΜΟΣ": "Αργοστόλι",
        "ΔΗΜΟΤΙΚΗ_ΕΝΟΤΗΤΑ": "Ελειός-Πρόνοι",
        "ΚΟΙΝΟΤΗΤΑ": "Σκάλα",
        "ΕΝΤΟΣ_NATURA2000": "NO",
        "EVENT_CLASS": "Standard",
        "EVENT_SCORE": 1,
        "NATURA2000_ΚΩΔΙΚΟΣ": "nan",
        "NATURA2000_ΟΝΟΜΑ": "nan",
        "ΑΔΑ_ΚΩΔΙΚΟΣ": "Ε0ΧΟ46ΝΠΙΘ-2Κ6",
        "ΑΔΑ_ΔΙΟΙΚΗΤΙΚΗ_ΜΟΝΑΔΑ": "Δημοτική Κοινότητα Σκάλας (Δ.Ε. Ελειού-Πρόνων), Δήμος Αργοστολίου",
        "ΗΜΕΡΟΜΗΝΙΑ_ΣΥΜΒΑΝΤΟΣ": "13/02/2026",
        "ΗΜΕΡΟΜΗΝΙΑ_ΚΗΡΥΞΗΣ": "20/02/2026",
        "ΔΙΑΡΚΕΙΑ_ΕΚΤΑΚΤΗΣ_ΑΝΑΓΚΗΣ": "3 months",
        "ΠΕΡΙΓΡΑΦΗ_ΖΗΜΙΩΝ": "Εκτεταμένη παράκτια διάβρωση κυρίως στην παραλιακή ζώνη Σπίθι Σκάλας, υποχώρηση παραλιακού δρόμου και πεζοδρομίων, απειλή σε επιχειρήσεις και κατοικίες.",
        "SHORT_DAMAGE": "Εκτεταμένη παράκτια διάβρωση κυρίως στην παραλιακή ζώνη Σπίθι Σκάλας, υποχώρηση παραλιακού δρόμου και πεζοδρομίων, απειλή σε επιχειρήσεις και κατοικίες",
        "IMAGE_PREFIX": "11",
        "NATURA2000_ΤΥΠΟΣ": "nan",
        "NATURA2000_ΑΠΟΣΤΑΣΗ_M": ""
      },
      "geometry": {
        "type": "Point",
        "coordinates": [
          20.79581,
          38.06503
        ]
      }
    },
    {
      "type": "Feature",
      "properties": {
        "EVENT_ID": 12,
        "ΠΑΡΑΚΤΙΑ_ΠΕΡΙΟΧΗ": "Λιμάνι Μανδράκι",
        "ΑΠΟΚΕΝΤΡΩΜΕΝΗ_ΔΙΟΙΚΗΣΗ": "Αιγαίο",
        "ΠΕΡΙΦΕΡΕΙΑ": "Νότιο Αιγαίο",
        "ΠΕΡΙΦΕΡΕΙΑΚΗ_ΕΝΟΤΗΤΑ": "Κως",
        "ΔΗΜΟΣ": "Νίσυρος",
        "ΔΗΜΟΤΙΚΗ_ΕΝΟΤΗΤΑ": "Νίσυρος",
        "ΚΟΙΝΟΤΗΤΑ": "Μανδράκι",
        "ΕΝΤΟΣ_NATURA2000": "YES",
        "EVENT_CLASS": "Natura High",
        "EVENT_SCORE": 3,
        "NATURA2000_ΚΩΔΙΚΟΣ": "GR4210032",
        "NATURA2000_ΟΝΟΜΑ": "Νήσος Νίσυρος & νησίδες",
        "ΑΔΑ_ΚΩΔΙΚΟΣ": "ΕΒΔ646ΝΠΙΘ-ΛΛΔ",
        "ΑΔΑ_ΔΙΟΙΚΗΤΙΚΗ_ΜΟΝΑΔΑ": "Δήμος Νισύρου",
        "ΗΜΕΡΟΜΗΝΙΑ_ΣΥΜΒΑΝΤΟΣ": "17/02/2026",
        "ΗΜΕΡΟΜΗΝΙΑ_ΚΗΡΥΞΗΣ": "19/02/2026",
        "ΔΙΑΡΚΕΙΑ_ΕΚΤΑΚΤΗΣ_ΑΝΑΓΚΗΣ": "3 months",
        "ΠΕΡΙΓΡΑΦΗ_ΖΗΜΙΩΝ": "Σοβαρές ζημιές στο νησί της Νισύρου από έντονα καιρικά φαινόμενα.",
        "SHORT_DAMAGE": "Σοβαρές ζημιές στο νησί της Νισύρου από έντονα καιρικά φαινόμενα",
        "IMAGE_PREFIX": "12",
        "NATURA2000_ΤΥΠΟΣ": "SPA",
        "NATURA2000_ΑΠΟΣΤΑΣΗ_M": 0
      },
      "geometry": {
        "type": "Point",
        "coordinates": [
          27.13821,
          36.61404
        ]
      }
    },
    {
      "type": "Feature",
      "properties": {
        "EVENT_ID": 15,
        "ΠΑΡΑΚΤΙΑ_ΠΕΡΙΟΧΗ": "Λιμάνι Φρυ & ακτές",
        "ΑΠΟΚΕΝΤΡΩΜΕΝΗ_ΔΙΟΙΚΗΣΗ": "Αιγαίο",
        "ΠΕΡΙΦΕΡΕΙΑ": "Νότιο Αιγαίο",
        "ΠΕΡΙΦΕΡΕΙΑΚΗ_ΕΝΟΤΗΤΑ": "Κάρπαθος",
        "ΔΗΜΟΣ": "Ηρωική Νήσος Κάσος",
        "ΔΗΜΟΤΙΚΗ_ΕΝΟΤΗΤΑ": "Κάσος",
        "ΚΟΙΝΟΤΗΤΑ": "Φρυ",
        "ΕΝΤΟΣ_NATURA2000": "YES",
        "EVENT_CLASS": "Natura High",
        "EVENT_SCORE": 3,
        "NATURA2000_ΚΩΔΙΚΟΣ": "GR4210028; GR4210001",
        "NATURA2000_ΟΝΟΜΑ": "Νήσος Κάσος & Κασονήσια; Κάσος & Κασονήσια (Θαλάσσια)",
        "ΑΔΑ_ΚΩΔΙΚΟΣ": "Ρ0ΕΖ46ΝΠΙΘ-Κ5Μ",
        "ΑΔΑ_ΔΙΟΙΚΗΤΙΚΗ_ΜΟΝΑΔΑ": "Δήμος Ηρωικής Νήσου Κάσου",
        "ΗΜΕΡΟΜΗΝΙΑ_ΣΥΜΒΑΝΤΟΣ": "18/02/2026",
        "ΗΜΕΡΟΜΗΝΙΑ_ΚΗΡΥΞΗΣ": "24/02/2026",
        "ΔΙΑΡΚΕΙΑ_ΕΚΤΑΚΤΗΣ_ΑΝΑΓΚΗΣ": "3 months",
        "ΠΕΡΙΓΡΑΦΗ_ΖΗΜΙΩΝ": "Ζημιές από έντονα καιρικά φαινόμενα.",
        "SHORT_DAMAGE": "Ζημιές από έντονα καιρικά φαινόμενα.",
        "IMAGE_PREFIX": "15",
        "NATURA2000_ΤΥΠΟΣ": "SPA;SCI/SAC",
        "NATURA2000_ΑΠΟΣΤΑΣΗ_M": 0
      },
      "geometry": {
        "type": "Point",
        "coordinates": [
          26.92508,
          35.41671
        ]
      }
    },
    {
      "type": "Feature",
      "properties": {
        "EVENT_ID": 16,
        "ΠΑΡΑΚΤΙΑ_ΠΕΡΙΟΧΗ": "Παραλία Πόρτο Γερμενό",
        "ΑΠΟΚΕΝΤΡΩΜΕΝΗ_ΔΙΟΙΚΗΣΗ": "Αττική",
        "ΠΕΡΙΦΕΡΕΙΑ": "Αττική",
        "ΠΕΡΙΦΕΡΕΙΑΚΗ_ΕΝΟΤΗΤΑ": "Δυτική Αττική",
        "ΔΗΜΟΣ": "Μάνδρα-Ειδυλλία",
        "ΔΗΜΟΤΙΚΗ_ΕΝΟΤΗΤΑ": "Βίλια",
        "ΚΟΙΝΟΤΗΤΑ": "Βίλια",
        "ΕΝΤΟΣ_NATURA2000": "NO",
        "EVENT_CLASS": "Standard",
        "EVENT_SCORE": 1,
        "NATURA2000_ΚΩΔΙΚΟΣ": "nan",
        "NATURA2000_ΟΝΟΜΑ": "nan",
        "ΑΔΑ_ΚΩΔΙΚΟΣ": "ΡΘΦΛ46ΝΠΙΘ-6Ε7",
        "ΑΔΑ_ΔΙΟΙΚΗΤΙΚΗ_ΜΟΝΑΔΑ": "Δημοτική Κοινότητα Βιλίων, Δήμος Μάνδρας Ειδυλλίας",
        "ΗΜΕΡΟΜΗΝΙΑ_ΣΥΜΒΑΝΤΟΣ": "18/02/2026",
        "ΗΜΕΡΟΜΗΝΙΑ_ΚΗΡΥΞΗΣ": "19/02/2026",
        "ΔΙΑΡΚΕΙΑ_ΕΚΤΑΚΤΗΣ_ΑΝΑΓΚΗΣ": "3 months",
        "ΠΕΡΙΓΡΑΦΗ_ΖΗΜΙΩΝ": "Παράκτια διάβρωση στο παραλιακό μέτωπο Πόρτο Γερμενό.",
        "SHORT_DAMAGE": "Παράκτια διάβρωση στο παραλιακό μέτωπο Πόρτο Γερμενό",
        "IMAGE_PREFIX": "16",
        "NATURA2000_ΤΥΠΟΣ": "nan",
        "NATURA2000_ΑΠΟΣΤΑΣΗ_M": ""
      },
      "geometry": {
        "type": "Point",
        "coordinates": [
          23.22472814764688,
          38.149371611498
        ]
      }
    },
    {
      "type": "Feature",
      "properties": {
        "EVENT_ID": 18,
        "ΠΑΡΑΚΤΙΑ_ΠΕΡΙΟΧΗ": "Ακτές Απολλωνίων/Ελλομένου",
        "ΑΠΟΚΕΝΤΡΩΜΕΝΗ_ΔΙΟΙΚΗΣΗ": "Πελοπόννησος, Δυτική Ελλάδα & Ιόνιο",
        "ΠΕΡΙΦΕΡΕΙΑ": "Ιόνια Νησιά",
        "ΠΕΡΙΦΕΡΕΙΑΚΗ_ΕΝΟΤΗΤΑ": "Λευκάδα",
        "ΔΗΜΟΣ": "Λευκάδα",
        "ΔΗΜΟΤΙΚΗ_ΕΝΟΤΗΤΑ": "Απολλώνιοι; Ελλόμενο",
        "ΚΟΙΝΟΤΗΤΑ": "Βασιλική; Νυδρί",
        "ΕΝΤΟΣ_NATURA2000": "NO",
        "EVENT_CLASS": "Standard",
        "EVENT_SCORE": 1,
        "NATURA2000_ΚΩΔΙΚΟΣ": "nan",
        "NATURA2000_ΟΝΟΜΑ": "nan",
        "ΑΔΑ_ΚΩΔΙΚΟΣ": "ΡΟΧ246ΝΠΙΘ-ΦΦΕ",
        "ΑΔΑ_ΔΙΟΙΚΗΤΙΚΗ_ΜΟΝΑΔΑ": "Δημοτικές Ενότητες Απολλωνίων, Ελλομένου και Λευκάδας, Δήμος Λευκάδας",
        "ΗΜΕΡΟΜΗΝΙΑ_ΣΥΜΒΑΝΤΟΣ": "13/02/2026",
        "ΗΜΕΡΟΜΗΝΙΑ_ΚΗΡΥΞΗΣ": "20/02/2026",
        "ΔΙΑΡΚΕΙΑ_ΕΚΤΑΚΤΗΣ_ΑΝΑΓΚΗΣ": "3 months",
        "ΠΕΡΙΓΡΑΦΗ_ΖΗΜΙΩΝ": "Ζημιές από πλημμύρες, κατολισθήσεις και παράκτια διάβρωση στο νησί της Λευκάδας.",
        "SHORT_DAMAGE": "Ζημιές από πλημμύρες, κατολισθήσεις και παράκτια διάβρωση στο νησί της Λευκάδας",
        "IMAGE_PREFIX": "18",
        "NATURA2000_ΤΥΠΟΣ": "nan",
        "NATURA2000_ΑΠΟΣΤΑΣΗ_M": ""
      },
      "geometry": {
        "type": "Point",
        "coordinates": [
          20.599487259895813,
          38.63127520945769
        ]
      }
    },
    {
      "type": "Feature",
      "properties": {
        "EVENT_ID": 19,
        "ΠΑΡΑΚΤΙΑ_ΠΕΡΙΟΧΗ": "Ξυλοκερατίδι & κόλπος Καταπόλων",
        "ΑΠΟΚΕΝΤΡΩΜΕΝΗ_ΔΙΟΙΚΗΣΗ": "Αιγαίο",
        "ΠΕΡΙΦΕΡΕΙΑ": "Νότιο Αιγαίο",
        "ΠΕΡΙΦΕΡΕΙΑΚΗ_ΕΝΟΤΗΤΑ": "Νάξος",
        "ΔΗΜΟΣ": "Αμοργός",
        "ΔΗΜΟΤΙΚΗ_ΕΝΟΤΗΤΑ": "Αμοργός",
        "ΚΟΙΝΟΤΗΤΑ": "Κατάπολα",
        "ΕΝΤΟΣ_NATURA2000": "NO",
        "EVENT_CLASS": "Standard",
        "EVENT_SCORE": 1,
        "NATURA2000_ΚΩΔΙΚΟΣ": "nan",
        "NATURA2000_ΟΝΟΜΑ": "nan",
        "ΑΔΑ_ΚΩΔΙΚΟΣ": "Ψ1Ξ146ΝΠΙΘ-ΤΛ6",
        "ΑΔΑ_ΔΙΟΙΚΗΤΙΚΗ_ΜΟΝΑΔΑ": "Δήμος Αμοργού",
        "ΗΜΕΡΟΜΗΝΙΑ_ΣΥΜΒΑΝΤΟΣ": "14/02/2026",
        "ΗΜΕΡΟΜΗΝΙΑ_ΚΗΡΥΞΗΣ": "18/02/2026",
        "ΔΙΑΡΚΕΙΑ_ΕΚΤΑΚΤΗΣ_ΑΝΑΓΚΗΣ": "3 months",
        "ΠΕΡΙΓΡΑΦΗ_ΖΗΜΙΩΝ": "Αυξημένος κίνδυνος και ζημιές από καιρικά φαινόμενα.",
        "SHORT_DAMAGE": "Αυξημένος κίνδυνος και ζημιές από καιρικά φαινόμενα",
        "IMAGE_PREFIX": "19",
        "NATURA2000_ΤΥΠΟΣ": "nan",
        "NATURA2000_ΑΠΟΣΤΑΣΗ_M": ""
      },
      "geometry": {
        "type": "Point",
        "coordinates": [
          25.86601068418708,
          36.82892946932285
        ]
      }
    },
    {
      "type": "Feature",
      "properties": {
        "EVENT_ID": 20,
        "ΠΑΡΑΚΤΙΑ_ΠΕΡΙΟΧΗ": "Προκυμαία & λιμάνι",
        "ΑΠΟΚΕΝΤΡΩΜΕΝΗ_ΔΙΟΙΚΗΣΗ": "Αιγαίο",
        "ΠΕΡΙΦΕΡΕΙΑ": "Βόρειο Αιγαίο",
        "ΠΕΡΙΦΕΡΕΙΑΚΗ_ΕΝΟΤΗΤΑ": "Χίος",
        "ΔΗΜΟΣ": "Χίος",
        "ΔΗΜΟΤΙΚΗ_ΕΝΟΤΗΤΑ": "Χίος",
        "ΚΟΙΝΟΤΗΤΑ": "Χίος",
        "ΕΝΤΟΣ_NATURA2000": "NO",
        "EVENT_CLASS": "Standard",
        "EVENT_SCORE": 1,
        "NATURA2000_ΚΩΔΙΚΟΣ": "nan",
        "NATURA2000_ΟΝΟΜΑ": "nan",
        "ΑΔΑ_ΚΩΔΙΚΟΣ": "ΨΕΑ346ΝΠΙΘ-ΗΞΩ",
        "ΑΔΑ_ΔΙΟΙΚΗΤΙΚΗ_ΜΟΝΑΔΑ": "Δημοτικές Ενότητες Χίου, Ομηρούπολης, Καρδαμύλων, Αμανής, Μαστιχιχωρίων, Ιωνίας και Αγίου Μηνά, Δήμος Χίου",
        "ΗΜΕΡΟΜΗΝΙΑ_ΣΥΜΒΑΝΤΟΣ": "15/02/2026",
        "ΗΜΕΡΟΜΗΝΙΑ_ΚΗΡΥΞΗΣ": "17/02/2026",
        "ΔΙΑΡΚΕΙΑ_ΕΚΤΑΚΤΗΣ_ΑΝΑΓΚΗΣ": "3 months",
        "ΠΕΡΙΓΡΑΦΗ_ΖΗΜΙΩΝ": "Παράκτια διάβρωση από θυελλώδεις ανέμους στο νησί της Χίου.",
        "SHORT_DAMAGE": "Παράκτια διάβρωση από θυελλώδεις ανέμους στο νησί της Χίου",
        "IMAGE_PREFIX": "20",
        "NATURA2000_ΤΥΠΟΣ": "nan",
        "NATURA2000_ΑΠΟΣΤΑΣΗ_M": ""
      },
      "geometry": {
        "type": "Point",
        "coordinates": [
          26.1436797964187,
          38.36327671925886
        ]
      }
    },
    {
      "type": "Feature",
      "properties": {
        "EVENT_ID": 21,
        "ΠΑΡΑΚΤΙΑ_ΠΕΡΙΟΧΗ": "Ακτές (Άγ. Νικόλαος)",
        "ΑΠΟΚΕΝΤΡΩΜΕΝΗ_ΔΙΟΙΚΗΣΗ": "Αιγαίο",
        "ΠΕΡΙΦΕΡΕΙΑ": "Νότιο Αιγαίο",
        "ΠΕΡΙΦΕΡΕΙΑΚΗ_ΕΝΟΤΗΤΑ": "Θήρα",
        "ΔΗΜΟΣ": "Ανάφη",
        "ΔΗΜΟΤΙΚΗ_ΕΝΟΤΗΤΑ": "Ανάφη",
        "ΚΟΙΝΟΤΗΤΑ": "Ανάφη",
        "ΕΝΤΟΣ_NATURA2000": "NO",
        "EVENT_CLASS": "Standard",
        "EVENT_SCORE": 1,
        "NATURA2000_ΚΩΔΙΚΟΣ": "nan",
        "NATURA2000_ΟΝΟΜΑ": "nan",
        "ΑΔΑ_ΚΩΔΙΚΟΣ": "ΨΙΗΧ46ΝΠΙΘ-Ν1Δ",
        "ΑΔΑ_ΔΙΟΙΚΗΤΙΚΗ_ΜΟΝΑΔΑ": "Δήμος Ανάφης",
        "ΗΜΕΡΟΜΗΝΙΑ_ΣΥΜΒΑΝΤΟΣ": "14/02/2026",
        "ΗΜΕΡΟΜΗΝΙΑ_ΚΗΡΥΞΗΣ": "19/02/2026",
        "ΔΙΑΡΚΕΙΑ_ΕΚΤΑΚΤΗΣ_ΑΝΑΓΚΗΣ": "3 months",
        "ΠΕΡΙΓΡΑΦΗ_ΖΗΜΙΩΝ": "Κατολισθήσεις και παράκτια διάβρωση.",
        "SHORT_DAMAGE": "Κατολισθήσεις και παράκτια διάβρωση.",
        "IMAGE_PREFIX": "21",
        "NATURA2000_ΤΥΠΟΣ": "nan",
        "NATURA2000_ΑΠΟΣΤΑΣΗ_M": ""
      },
      "geometry": {
        "type": "Point",
        "coordinates": [
          25.37220394583485,
          36.45734508762968
        ]
      }
    },
    {
      "type": "Feature",
      "properties": {
        "EVENT_ID": 22,
        "ΠΑΡΑΚΤΙΑ_ΠΕΡΙΟΧΗ": "Ακτές Κύμης & Πετριών",
        "ΑΠΟΚΕΝΤΡΩΜΕΝΗ_ΔΙΟΙΚΗΣΗ": "Θεσσαλία - Στερεά Ελλάδα",
        "ΠΕΡΙΦΕΡΕΙΑ": "Στερεά Ελλάδα",
        "ΠΕΡΙΦΕΡΕΙΑΚΗ_ΕΝΟΤΗΤΑ": "Εύβοια",
        "ΔΗΜΟΣ": "Κύμη-Αλιβέρι",
        "ΔΗΜΟΤΙΚΗ_ΕΝΟΤΗΤΑ": "Κύμη",
        "ΚΟΙΝΟΤΗΤΑ": "Κύμη; Πετριές",
        "ΕΝΤΟΣ_NATURA2000": "YES",
        "EVENT_CLASS": "Natura High",
        "EVENT_SCORE": 3,
        "NATURA2000_ΚΩΔΙΚΟΣ": "GR2420011",
        "NATURA2000_ΟΝΟΜΑ": "Όρη κεντρικής Εύβοιας, Παράκτια Ζώνη & νησίδες",
        "ΑΔΑ_ΚΩΔΙΚΟΣ": "ΨΙΩΨ46ΝΠΙΘ-ΤΒΑ",
        "ΑΔΑ_ΔΙΟΙΚΗΤΙΚΗ_ΜΟΝΑΔΑ": "Δημοτικές Κοινότητες Κύμης, Πλατάνας, Πετριών, Αλιβερίου, Δήμος Κύμης-Αλιβερίου",
        "ΗΜΕΡΟΜΗΝΙΑ_ΣΥΜΒΑΝΤΟΣ": "15/02/2026",
        "ΗΜΕΡΟΜΗΝΙΑ_ΚΗΡΥΞΗΣ": "19/02/2026",
        "ΔΙΑΡΚΕΙΑ_ΕΚΤΑΚΤΗΣ_ΑΝΑΓΚΗΣ": "3 months",
        "ΠΕΡΙΓΡΑΦΗ_ΖΗΜΙΩΝ": "Εκτεταμένες κατολισθήσεις και παράκτια διάβρωση.",
        "SHORT_DAMAGE": "Εκτεταμένες κατολισθήσεις και παράκτια διάβρωση",
        "IMAGE_PREFIX": "22",
        "NATURA2000_ΤΥΠΟΣ": "SPA",
        "NATURA2000_ΑΠΟΣΤΑΣΗ_M": 4769
      },
      "geometry": {
        "type": "Point",
        "coordinates": [
          24.120656869070817,
          38.621464972563885
        ]
      }
    },
    {
      "type": "Feature",
      "properties": {
        "EVENT_ID": 23,
        "ΠΑΡΑΚΤΙΑ_ΠΕΡΙΟΧΗ": "Παραλιακό μέτωπο Λιμεναρίων & Καλλιράχης",
        "ΑΠΟΚΕΝΤΡΩΜΕΝΗ_ΔΙΟΙΚΗΣΗ": "Μακεδονία - Θράκη",
        "ΠΕΡΙΦΕΡΕΙΑ": "Ανατολική Μακεδονία & Θράκη",
        "ΠΕΡΙΦΕΡΕΙΑΚΗ_ΕΝΟΤΗΤΑ": "Θάσος",
        "ΔΗΜΟΣ": "Θάσος",
        "ΔΗΜΟΤΙΚΗ_ΕΝΟΤΗΤΑ": "Θάσος",
        "ΚΟΙΝΟΤΗΤΑ": "Λιμενάρια; Καλλιράχη",
        "ΕΝΤΟΣ_NATURA2000": "NO",
        "EVENT_CLASS": "Standard",
        "EVENT_SCORE": 1,
        "NATURA2000_ΚΩΔΙΚΟΣ": "nan",
        "NATURA2000_ΟΝΟΜΑ": "nan",
        "ΑΔΑ_ΚΩΔΙΚΟΣ": "ΨΚ6Ψ46ΝΠΙΘ-414",
        "ΑΔΑ_ΔΙΟΙΚΗΤΙΚΗ_ΜΟΝΑΔΑ": "Δημοτικές Κοινότητες Λιμεναρίων και Καλλιράχης, Δήμος Θάσου",
        "ΗΜΕΡΟΜΗΝΙΑ_ΣΥΜΒΑΝΤΟΣ": "15/02/2026",
        "ΗΜΕΡΟΜΗΝΙΑ_ΚΗΡΥΞΗΣ": "17/02/2026",
        "ΔΙΑΡΚΕΙΑ_ΕΚΤΑΚΤΗΣ_ΑΝΑΓΚΗΣ": "3 months",
        "ΠΕΡΙΓΡΑΦΗ_ΖΗΜΙΩΝ": "Ζημιές στο παραλιακό μέτωπο και υποδομές από παράκτια διάβρωση.",
        "SHORT_DAMAGE": "Ζημιές στο παραλιακό μέτωπο και υποδομές από παράκτια διάβρωση",
        "IMAGE_PREFIX": "23",
        "NATURA2000_ΤΥΠΟΣ": "nan",
        "NATURA2000_ΑΠΟΣΤΑΣΗ_M": ""
      },
      "geometry": {
        "type": "Point",
        "coordinates": [
          24.533951961721588,
          40.71278483517786
        ]
      }
    },
    {
      "type": "Feature",
      "properties": {
        "EVENT_ID": 27,
        "ΠΑΡΑΚΤΙΑ_ΠΕΡΙΟΧΗ": "Όρμος Αλίντων & Δρυμώνας",
        "ΑΠΟΚΕΝΤΡΩΜΕΝΗ_ΔΙΟΙΚΗΣΗ": "Αιγαίο",
        "ΠΕΡΙΦΕΡΕΙΑ": "Νότιο Αιγαίο",
        "ΠΕΡΙΦΕΡΕΙΑΚΗ_ΕΝΟΤΗΤΑ": "Κάλυμνος",
        "ΔΗΜΟΣ": "Λέρος",
        "ΔΗΜΟΤΙΚΗ_ΕΝΟΤΗΤΑ": "Λέρος",
        "ΚΟΙΝΟΤΗΤΑ": "Λέρος",
        "ΕΝΤΟΣ_NATURA2000": "NO",
        "EVENT_CLASS": "Standard",
        "EVENT_SCORE": 1,
        "NATURA2000_ΚΩΔΙΚΟΣ": "nan",
        "NATURA2000_ΟΝΟΜΑ": "nan",
        "ΑΔΑ_ΚΩΔΙΚΟΣ": "ΨΨΣΠ46ΝΠΙΘ-Ι2Θ",
        "ΑΔΑ_ΔΙΟΙΚΗΤΙΚΗ_ΜΟΝΑΔΑ": "Δήμος Λέρου",
        "ΗΜΕΡΟΜΗΝΙΑ_ΣΥΜΒΑΝΤΟΣ": "15/02/2026",
        "ΗΜΕΡΟΜΗΝΙΑ_ΚΗΡΥΞΗΣ": "17/02/2026",
        "ΔΙΑΡΚΕΙΑ_ΕΚΤΑΚΤΗΣ_ΑΝΑΓΚΗΣ": "3 months",
        "ΠΕΡΙΓΡΑΦΗ_ΖΗΜΙΩΝ": "Παράκτια διάβρωση από θυελλώδεις ανέμους στο νησί της Λέρου. Κλειστός δρόμος Δρυμώνα, ζημιές σε παραλιακό μέτωπο.",
        "SHORT_DAMAGE": "Παράκτια διάβρωση από θυελλώδεις ανέμους στο νησί της Λέρου",
        "IMAGE_PREFIX": "27",
        "NATURA2000_ΤΥΠΟΣ": "nan",
        "NATURA2000_ΑΠΟΣΤΑΣΗ_M": ""
      },
      "geometry": {
        "type": "Point",
        "coordinates": [
          26.835786870814182,
          37.16293607303204
        ]
      }
    },
    {
      "type": "Feature",
      "properties": {
        "EVENT_ID": 28,
        "ΠΑΡΑΚΤΙΑ_ΠΕΡΙΟΧΗ": "Ακτή Μουτσούνας",
        "ΑΠΟΚΕΝΤΡΩΜΕΝΗ_ΔΙΟΙΚΗΣΗ": "Αιγαίο",
        "ΠΕΡΙΦΕΡΕΙΑ": "Νότιο Αιγαίο",
        "ΠΕΡΙΦΕΡΕΙΑΚΗ_ΕΝΟΤΗΤΑ": "Νάξος",
        "ΔΗΜΟΣ": "Νάξος & Μικρές Κυκλάδες",
        "ΔΗΜΟΤΙΚΗ_ΕΝΟΤΗΤΑ": "Δρυμαλία",
        "ΚΟΙΝΟΤΗΤΑ": "Απέραθος",
        "ΕΝΤΟΣ_NATURA2000": "YES",
        "EVENT_CLASS": "Natura High",
        "EVENT_SCORE": 3,
        "NATURA2000_ΚΩΔΙΚΟΣ": "GR4220014",
        "NATURA2000_ΟΝΟΜΑ": "Κεντρική & Νότια Νάξος (Θαλάσσια Ζώνη Όρμου Καράδες - Όρμου Μουτσούνας)",
        "ΑΔΑ_ΚΩΔΙΚΟΣ": "9Ν4Ω46ΝΠΙΘ-ΨΨ0",
        "ΑΔΑ_ΔΙΟΙΚΗΤΙΚΗ_ΜΟΝΑΔΑ": "Δημοτικές Κοινότητες Απεράθου (Δ.Ε. Δρυμαλίας) και Αγίου Αρσενίου (Δ.Ε. Νάξου), Δήμος Νάξου",
        "ΗΜΕΡΟΜΗΝΙΑ_ΣΥΜΒΑΝΤΟΣ": "14/02/2026",
        "ΗΜΕΡΟΜΗΝΙΑ_ΚΗΡΥΞΗΣ": "16/02/2026",
        "ΔΙΑΡΚΕΙΑ_ΕΚΤΑΚΤΗΣ_ΑΝΑΓΚΗΣ": "3 months",
        "ΠΕΡΙΓΡΑΦΗ_ΖΗΜΙΩΝ": "Παράκτια διάβρωση στην ακτή Μουτσούνας (Απέραθος), σοβαρές ζημιές στο παράκτιο οδικό δίκτυο και αποκάλυψη δικτύων.",
        "SHORT_DAMAGE": "Παράκτια διάβρωση στην ακτή Μουτσούνας (Απέραθος), σοβαρές ζημιές στο παράκτιο οδικό δίκτυο και αποκάλυψη δικτύων",
        "IMAGE_PREFIX": "28",
        "NATURA2000_ΤΥΠΟΣ": "SCI/SAC",
        "NATURA2000_ΑΠΟΣΤΑΣΗ_M": 661
      },
      "geometry": {
        "type": "Point",
        "coordinates": [
          25.586914252899795,
          37.07794685534879
        ]
      }
    },
    {
      "type": "Feature",
      "properties": {
        "EVENT_ID": 29,
        "ΠΑΡΑΚΤΙΑ_ΠΕΡΙΟΧΗ": "Παραλία Αγίου Προκοπίου",
        "ΑΠΟΚΕΝΤΡΩΜΕΝΗ_ΔΙΟΙΚΗΣΗ": "Αιγαίο",
        "ΠΕΡΙΦΕΡΕΙΑ": "Νότιο Αιγαίο",
        "ΠΕΡΙΦΕΡΕΙΑΚΗ_ΕΝΟΤΗΤΑ": "Νάξος",
        "ΔΗΜΟΣ": "Νάξος & Μικρές Κυκλάδες",
        "ΔΗΜΟΤΙΚΗ_ΕΝΟΤΗΤΑ": "Νάξος",
        "ΚΟΙΝΟΤΗΤΑ": "Άγιος Αρσένιος",
        "ΕΝΤΟΣ_NATURA2000": "YES",
        "EVENT_CLASS": "Natura High",
        "EVENT_SCORE": 3,
        "NATURA2000_ΚΩΔΙΚΟΣ": "GR4220014",
        "NATURA2000_ΟΝΟΜΑ": "Κεντρική & Νότια Νάξος (Θαλάσσια Ζώνη Όρμου Καράδες - Όρμου Μουτσούνας)",
        "ΑΔΑ_ΚΩΔΙΚΟΣ": "9Ν4Ω46ΝΠΙΘ-ΨΨ0",
        "ΑΔΑ_ΔΙΟΙΚΗΤΙΚΗ_ΜΟΝΑΔΑ": "Δημοτικές Κοινότητες Απεράθου (Δ.Ε. Δρυμαλίας) και Αγίου Αρσενίου (Δ.Ε. Νάξου), Δήμος Νάξου",
        "ΗΜΕΡΟΜΗΝΙΑ_ΣΥΜΒΑΝΤΟΣ": "14/02/2026",
        "ΗΜΕΡΟΜΗΝΙΑ_ΚΗΡΥΞΗΣ": "16/02/2026",
        "ΔΙΑΡΚΕΙΑ_ΕΚΤΑΚΤΗΣ_ΑΝΑΓΚΗΣ": "3 months",
        "ΠΕΡΙΓΡΑΦΗ_ΖΗΜΙΩΝ": "Παράκτια διάβρωση στην παραλία Αγίου Προκοπίου, υποχώρηση δρόμου και αποκάλυψη δικτύων.",
        "SHORT_DAMAGE": "Παράκτια διάβρωση στην παραλία Αγίου Προκοπίου, υποχώρηση δρόμου και αποκάλυψη δικτύων",
        "IMAGE_PREFIX": "29",
        "NATURA2000_ΤΥΠΟΣ": "SCI/SAC",
        "NATURA2000_ΑΠΟΣΤΑΣΗ_M": 12
      },
      "geometry": {
        "type": "Point",
        "coordinates": [
          25.352654393805626,
          37.07210654453118
        ]
      }
    },
    {
      "type": "Feature",
      "properties": {
        "EVENT_ID": 32,
        "ΠΑΡΑΚΤΙΑ_ΠΕΡΙΟΧΗ": "Παραλία Ψάθας",
        "ΑΠΟΚΕΝΤΡΩΜΕΝΗ_ΔΙΟΙΚΗΣΗ": "Αττική",
        "ΠΕΡΙΦΕΡΕΙΑ": "Αττική",
        "ΠΕΡΙΦΕΡΕΙΑΚΗ_ΕΝΟΤΗΤΑ": "Δυτική Αττική",
        "ΔΗΜΟΣ": "Μάνδρα-Ειδυλλία",
        "ΔΗΜΟΤΙΚΗ_ΕΝΟΤΗΤΑ": "Βίλια",
        "ΚΟΙΝΟΤΗΤΑ": "Βίλια",
        "ΕΝΤΟΣ_NATURA2000": "NO",
        "EVENT_CLASS": "Standard",
        "EVENT_SCORE": 1,
        "NATURA2000_ΚΩΔΙΚΟΣ": "nan",
        "NATURA2000_ΟΝΟΜΑ": "nan",
        "ΑΔΑ_ΚΩΔΙΚΟΣ": "ΡΘΦΛ46ΝΠΙΘ-6Ε7",
        "ΑΔΑ_ΔΙΟΙΚΗΤΙΚΗ_ΜΟΝΑΔΑ": "Δημοτική Κοινότητα Βιλίων, Δήμος Μάνδρας Ειδυλλίας",
        "ΗΜΕΡΟΜΗΝΙΑ_ΣΥΜΒΑΝΤΟΣ": "18/02/2026",
        "ΗΜΕΡΟΜΗΝΙΑ_ΚΗΡΥΞΗΣ": "19/02/2026",
        "ΔΙΑΡΚΕΙΑ_ΕΚΤΑΚΤΗΣ_ΑΝΑΓΚΗΣ": "3 months",
        "ΠΕΡΙΓΡΑΦΗ_ΖΗΜΙΩΝ": "Παράκτια διάβρωση στο παραλιακό μέτωπο Ψάθας.",
        "SHORT_DAMAGE": "Παράκτια διάβρωση στο παραλιακό μέτωπο Ψάθας",
        "IMAGE_PREFIX": "32",
        "NATURA2000_ΤΥΠΟΣ": "nan",
        "NATURA2000_ΑΠΟΣΤΑΣΗ_M": ""
      },
      "geometry": {
        "type": "Point",
        "coordinates": [
          23.217749800286818,
          38.10969922591073
        ]
      }
    },
    {
      "type": "Feature",
      "properties": {
        "EVENT_ID": 33,
        "ΠΑΡΑΚΤΙΑ_ΠΕΡΙΟΧΗ": "Παραλία Κοκκωνίου",
        "ΑΠΟΚΕΝΤΡΩΜΕΝΗ_ΔΙΟΙΚΗΣΗ": "Πελοπόννησος, Δυτική Ελλάδα και Ιόνιο",
        "ΠΕΡΙΦΕΡΕΙΑ": "Πελοπόννησος",
        "ΠΕΡΙΦΕΡΕΙΑΚΗ_ΕΝΟΤΗΤΑ": "Κορινθία",
        "ΔΗΜΟΣ": "Βέλου-Βόχας",
        "ΔΗΜΟΤΙΚΗ_ΕΝΟΤΗΤΑ": "Βέλος",
        "ΚΟΙΝΟΤΗΤΑ": "Κοκκώνι",
        "ΕΝΤΟΣ_NATURA2000": "YES",
        "EVENT_CLASS": "Natura High",
        "EVENT_SCORE": 1,
        "NATURA2000_ΚΩΔΙΚΟΣ": "GR2530007",
        "NATURA2000_ΟΝΟΜΑ": "KORINTHIAKOS KOLPOS",
        "NATURA2000_ΤΥΠΟΣ": "SCI/SAC",
        "NATURA2000_ΑΠΟΣΤΑΣΗ_M": 1133,
        "ΑΔΑ_ΚΩΔΙΚΟΣ": "ΡΤ8Υ46ΝΠΙΘ-31Ι",
        "ΑΔΑ_ΔΙΟΙΚΗΤΙΚΗ_ΜΟΝΑΔΑ": "Δημοτική Κοινότητα Κοκκωνίου (Δ.Ε. Βέλου), Δήμος Βέλου-Βόχας",
        "ΗΜΕΡΟΜΗΝΙΑ_ΣΥΜΒΑΝΤΟΣ": "18/02/2026",
        "ΗΜΕΡΟΜΗΝΙΑ_ΚΗΡΥΞΗΣ": "26/02/2026",
        "ΔΙΑΡΚΕΙΑ_ΕΚΤΑΚΤΗΣ_ΑΝΑΓΚΗΣ": "3 months",
        "ΠΕΡΙΓΡΑΦΗ_ΖΗΜΙΩΝ": "Κήρυξη σε κατάσταση Έκτακτης Ανάγκης Πολιτικής Προστασίας για την αντιμετώπιση παράκτιας διάβρωσης που προκλήθηκε από θυελλώδεις ανέμους στις 18 Φεβρουαρίου 2026. Διάρκεια ισχύος: 3 μήνες.",
        "SHORT_DAMAGE": "Παράκτια διάβρωση από θυελλώδεις ανέμους.",
        "IMAGE_PREFIX": "33"
      },
      "geometry": {
        "type": "Point",
        "coordinates": [
          22.7765,
          37.9745
        ]
      }
    },
    {
      "type": "Feature",
      "properties": {
        "EVENT_ID": 34,
        "ΠΑΡΑΚΤΙΑ_ΠΕΡΙΟΧΗ": "Παραλία Βραχατίου",
        "ΑΠΟΚΕΝΤΡΩΜΕΝΗ_ΔΙΟΙΚΗΣΗ": "Πελοπόννησος, Δυτική Ελλάδα και Ιόνιο",
        "ΠΕΡΙΦΕΡΕΙΑ": "Πελοπόννησος",
        "ΠΕΡΙΦΕΡΕΙΑΚΗ_ΕΝΟΤΗΤΑ": "Κορινθία",
        "ΔΗΜΟΣ": "Βέλου-Βόχας",
        "ΔΗΜΟΤΙΚΗ_ΕΝΟΤΗΤΑ": "Βόχα",
        "ΚΟΙΝΟΤΗΤΑ": "Βραχάτι",
        "ΕΝΤΟΣ_NATURA2000": "YES",
        "EVENT_CLASS": "Natura High",
        "EVENT_SCORE": 1,
        "NATURA2000_ΚΩΔΙΚΟΣ": "GR2530007",
        "NATURA2000_ΟΝΟΜΑ": "KORINTHIAKOS KOLPOS",
        "NATURA2000_ΤΥΠΟΣ": "SCI/SAC",
        "NATURA2000_ΑΠΟΣΤΑΣΗ_M": 0,
        "ΑΔΑ_ΚΩΔΙΚΟΣ": "ΡΤ8Υ46ΝΠΙΘ-31Ι",
        "ΑΔΑ_ΔΙΟΙΚΗΤΙΚΗ_ΜΟΝΑΔΑ": "Δημοτική Κοινότητα Βραχατίου (Δ.Ε. Βόχας), Δήμος Βέλου-Βόχας",
        "ΗΜΕΡΟΜΗΝΙΑ_ΣΥΜΒΑΝΤΟΣ": "18/02/2026",
        "ΗΜΕΡΟΜΗΝΙΑ_ΚΗΡΥΞΗΣ": "26/02/2026",
        "ΔΙΑΡΚΕΙΑ_ΕΚΤΑΚΤΗΣ_ΑΝΑΓΚΗΣ": "3 months",
        "ΠΕΡΙΓΡΑΦΗ_ΖΗΜΙΩΝ": "Κήρυξη σε κατάσταση Έκτακτης Ανάγκης Πολιτικής Προστασίας για την αντιμετώπιση παράκτιας διάβρωσης που προκλήθηκε από θυελλώδεις ανέμους στις 18 Φεβρουαρίου 2026. Διάρκεια ισχύος: 3 μήνες.",
        "SHORT_DAMAGE": "Παράκτια διάβρωση από θυελλώδεις ανέμους.",
        "IMAGE_PREFIX": "34"
      },
      "geometry": {
        "type": "Point",
        "coordinates": [
          22.8155,
          37.967
        ]
      }
    },
    {
      "type": "Feature",
      "properties": {
        "EVENT_ID": 35,
        "ΠΑΡΑΚΤΙΑ_ΠΕΡΙΟΧΗ": "Παραλιακή ζώνη Λεχαίου",
        "ΑΠΟΚΕΝΤΡΩΜΕΝΗ_ΔΙΟΙΚΗΣΗ": "Πελοπόννησος, Δυτική Ελλάδα και Ιόνιο",
        "ΠΕΡΙΦΕΡΕΙΑ": "Πελοπόννησος",
        "ΠΕΡΙΦΕΡΕΙΑΚΗ_ΕΝΟΤΗΤΑ": "Κορινθία",
        "ΔΗΜΟΣ": "Κορινθίων",
        "ΔΗΜΟΤΙΚΗ_ΕΝΟΤΗΤΑ": "Άσσος-Λεχαίο",
        "ΚΟΙΝΟΤΗΤΑ": "Λέχαιο",
        "ΕΝΤΟΣ_NATURA2000": "YES",
        "EVENT_CLASS": "Natura High",
        "EVENT_SCORE": 1,
        "NATURA2000_ΚΩΔΙΚΟΣ": "GR2530007",
        "NATURA2000_ΟΝΟΜΑ": "KORINTHIAKOS KOLPOS",
        "NATURA2000_ΤΥΠΟΣ": "SCI/SAC",
        "NATURA2000_ΑΠΟΣΤΑΣΗ_M": 0,
        "ΑΔΑ_ΚΩΔΙΚΟΣ": "90ΤΡ46ΝΠΙΘ-Υ5Ξ",
        "ΑΔΑ_ΔΙΟΙΚΗΤΙΚΗ_ΜΟΝΑΔΑ": "Δημοτική Κοινότητα Λεχαιού (Δ.Ε. Άσσου-Λεχαιού), Δήμος Κορινθίων",
        "ΗΜΕΡΟΜΗΝΙΑ_ΣΥΜΒΑΝΤΟΣ": "18/02/2026",
        "ΗΜΕΡΟΜΗΝΙΑ_ΚΗΡΥΞΗΣ": "27/02/2026",
        "ΔΙΑΡΚΕΙΑ_ΕΚΤΑΚΤΗΣ_ΑΝΑΓΚΗΣ": "3 months",
        "ΠΕΡΙΓΡΑΦΗ_ΖΗΜΙΩΝ": "Κήρυξη σε κατάσταση Έκτακτης Ανάγκης Πολιτικής Προστασίας για την αντιμετώπιση πλημμυρών και παράκτιας διάβρωσης που προκλήθηκαν από έντονα καιρικά φαινόμενα στις 18 και 19 Φεβρουαρίου 2026. Διάρκεια ισχύος: 3 μήνες.",
        "SHORT_DAMAGE": "Πλημμύρες και παράκτια διάβρωση από έντονα καιρικά φαινόμενα.",
        "IMAGE_PREFIX": "35"
      },
      "geometry": {
        "type": "Point",
        "coordinates": [
          22.8703,
          37.9347
        ]
      }
    },
    {
      "type": "Feature",
      "properties": {
        "EVENT_ID": 36,
        "ΠΑΡΑΚΤΙΑ_ΠΕΡΙΟΧΗ": "Παραλία Περιγιαλίου",
        "ΑΠΟΚΕΝΤΡΩΜΕΝΗ_ΔΙΟΙΚΗΣΗ": "Πελοπόννησος, Δυτική Ελλάδα και Ιόνιο",
        "ΠΕΡΙΦΕΡΕΙΑ": "Πελοπόννησος",
        "ΠΕΡΙΦΕΡΕΙΑΚΗ_ΕΝΟΤΗΤΑ": "Κορινθία",
        "ΔΗΜΟΣ": "Κορινθίων",
        "ΔΗΜΟΤΙΚΗ_ΕΝΟΤΗΤΑ": "Άσσος-Λεχαίο",
        "ΚΟΙΝΟΤΗΤΑ": "Περιγιάλι",
        "ΕΝΤΟΣ_NATURA2000": "YES",
        "EVENT_CLASS": "Natura High",
        "EVENT_SCORE": 1,
        "NATURA2000_ΚΩΔΙΚΟΣ": "GR2530007",
        "NATURA2000_ΟΝΟΜΑ": "KORINTHIAKOS KOLPOS",
        "NATURA2000_ΤΥΠΟΣ": "SCI/SAC",
        "NATURA2000_ΑΠΟΣΤΑΣΗ_M": 0,
        "ΑΔΑ_ΚΩΔΙΚΟΣ": "90ΤΡ46ΝΠΙΘ-Υ5Ξ",
        "ΑΔΑ_ΔΙΟΙΚΗΤΙΚΗ_ΜΟΝΑΔΑ": "Δημοτική Κοινότητα Περιγιαλίου (Δ.Ε. Άσσου-Λεχαιού), Δήμος Κορινθίων",
        "ΗΜΕΡΟΜΗΝΙΑ_ΣΥΜΒΑΝΤΟΣ": "18/02/2026",
        "ΗΜΕΡΟΜΗΝΙΑ_ΚΗΡΥΞΗΣ": "27/02/2026",
        "ΔΙΑΡΚΕΙΑ_ΕΚΤΑΚΤΗΣ_ΑΝΑΓΚΗΣ": "3 months",
        "ΠΕΡΙΓΡΑΦΗ_ΖΗΜΙΩΝ": "Κήρυξη σε κατάσταση Έκτακτης Ανάγκης Πολιτικής Προστασίας για την αντιμετώπιση πλημμυρών και παράκτιας διάβρωσης που προκλήθηκαν από έντονα καιρικά φαινόμενα στις 18 και 19 Φεβρουαρίου 2026. Διάρκεια ισχύος: 3 μήνες.",
        "SHORT_DAMAGE": "Πλημμύρες και παράκτια διάβρωση από έντονα καιρικά φαινόμενα.",
        "IMAGE_PREFIX": "36"
      },
      "geometry": {
        "type": "Point",
        "coordinates": [
          22.8537,
          37.9494
        ]
      }
    },
    {
      "type": "Feature",
      "properties": {
        "EVENT_ID": 37,
        "ΠΑΡΑΚΤΙΑ_ΠΕΡΙΟΧΗ": "Παραλία Κάτω Άσσου",
        "ΑΠΟΚΕΝΤΡΩΜΕΝΗ_ΔΙΟΙΚΗΣΗ": "Πελοπόννησος, Δυτική Ελλάδα και Ιόνιο",
        "ΠΕΡΙΦΕΡΕΙΑ": "Πελοπόννησος",
        "ΠΕΡΙΦΕΡΕΙΑΚΗ_ΕΝΟΤΗΤΑ": "Κορινθία",
        "ΔΗΜΟΣ": "Κορινθίων",
        "ΔΗΜΟΤΙΚΗ_ΕΝΟΤΗΤΑ": "Άσσος-Λεχαίο",
        "ΚΟΙΝΟΤΗΤΑ": "Κάτω Άσσος",
        "ΕΝΤΟΣ_NATURA2000": "YES",
        "EVENT_CLASS": "Natura High",
        "EVENT_SCORE": 1,
        "NATURA2000_ΚΩΔΙΚΟΣ": "GR2530007",
        "NATURA2000_ΟΝΟΜΑ": "KORINTHIAKOS KOLPOS",
        "NATURA2000_ΤΥΠΟΣ": "SCI/SAC",
        "NATURA2000_ΑΠΟΣΤΑΣΗ_M": 0,
        "ΑΔΑ_ΚΩΔΙΚΟΣ": "90ΤΡ46ΝΠΙΘ-Υ5Ξ",
        "ΑΔΑ_ΔΙΟΙΚΗΤΙΚΗ_ΜΟΝΑΔΑ": "Δημοτική Κοινότητα Κάτω Άσσου (Δ.Ε. Άσσου-Λεχαιού), Δήμος Κορινθίων",
        "ΗΜΕΡΟΜΗΝΙΑ_ΣΥΜΒΑΝΤΟΣ": "18/02/2026",
        "ΗΜΕΡΟΜΗΝΙΑ_ΚΗΡΥΞΗΣ": "27/02/2026",
        "ΔΙΑΡΚΕΙΑ_ΕΚΤΑΚΤΗΣ_ΑΝΑΓΚΗΣ": "3 months",
        "ΠΕΡΙΓΡΑΦΗ_ΖΗΜΙΩΝ": "Κήρυξη σε κατάσταση Έκτακτης Ανάγκης Πολιτικής Προστασίας για την αντιμετώπιση πλημμυρών και παράκτιας διάβρωσης που προκλήθηκαν από έντονα καιρικά φαινόμενα στις 18 και 19 Φεβρουαρίου 2026. Διάρκεια ισχύος: 3 μήνες.",
        "SHORT_DAMAGE": "Πλημμύρες και παράκτια διάβρωση από έντονα καιρικά φαινόμενα.",
        "IMAGE_PREFIX": "37"
      },
      "geometry": {
        "type": "Point",
        "coordinates": [
          22.843,
          37.962
        ]
      }
    },
    {
      "type": "Feature",
      "properties": {
        "EVENT_ID": 38,
        "ΠΑΡΑΚΤΙΑ_ΠΕΡΙΟΧΗ": "Όρμος Μαραθοκάμπου",
        "ΑΠΟΚΕΝΤΡΩΜΕΝΗ_ΔΙΟΙΚΗΣΗ": "Αιγαίο",
        "ΠΕΡΙΦΕΡΕΙΑ": "Βόρειο Αιγαίο",
        "ΠΕΡΙΦΕΡΕΙΑΚΗ_ΕΝΟΤΗΤΑ": "Σάμος",
        "ΔΗΜΟΣ": "Δυτικής Σάμου",
        "ΔΗΜΟΤΙΚΗ_ΕΝΟΤΗΤΑ": "Μαραθόκαμπος",
        "ΚΟΙΝΟΤΗΤΑ": "Μαραθόκαμπος",
        "ΕΝΤΟΣ_NATURA2000": "YES",
        "EVENT_CLASS": "Natura High",
        "EVENT_SCORE": 1,
        "NATURA2000_ΚΩΔΙΚΟΣ": "GR4120008",
        "NATURA2000_ΟΝΟΜΑ": "SAMOS: OROS KERKIS",
        "NATURA2000_ΤΥΠΟΣ": "SPA",
        "NATURA2000_ΑΠΟΣΤΑΣΗ_M": 2176,
        "ΑΔΑ_ΚΩΔΙΚΟΣ": "Ρ0Ν646ΝΠΙΘ-ΡΕ0",
        "ΑΔΑ_ΔΙΟΙΚΗΤΙΚΗ_ΜΟΝΑΔΑ": "Δημοτική Κοινότητα Μαραθοκάμπου (Δ.Ε. Μαραθοκάμπου), Δήμος Δυτικής Σάμου",
        "ΗΜΕΡΟΜΗΝΙΑ_ΣΥΜΒΑΝΤΟΣ": "15/02/2026",
        "ΗΜΕΡΟΜΗΝΙΑ_ΚΗΡΥΞΗΣ": "27/02/2026",
        "ΔΙΑΡΚΕΙΑ_ΕΚΤΑΚΤΗΣ_ΑΝΑΓΚΗΣ": "3 months",
        "ΠΕΡΙΓΡΑΦΗ_ΖΗΜΙΩΝ": "Κήρυξη σε κατάσταση Έκτακτης Ανάγκης Πολιτικής Προστασίας για την αντιμετώπιση παράκτιων πλημμυρών και παράκτιας διάβρωσης που προκλήθηκαν από ισχυρές βροχοπτώσεις και θυελλώδεις ανέμους από τις 15 έως τις 17 Φεβρουαρίου 2026. Διάρκεια ισχύος: 3 μήνες.",
        "SHORT_DAMAGE": "Παράκτιες πλημμύρες και παράκτια διάβρωση από ισχυρές βροχοπτώσεις και θυελλώδεις ανέμους.",
        "IMAGE_PREFIX": "38"
      },
      "geometry": {
        "type": "Point",
        "coordinates": [
          26.699322,
          37.710038
        ]
      }
    },
    {
      "type": "Feature",
      "properties": {
        "EVENT_ID": 39,
        "ΠΑΡΑΚΤΙΑ_ΠΕΡΙΟΧΗ": "Παραλία Μπάλος Κουμαιίκων",
        "ΑΠΟΚΕΝΤΡΩΜΕΝΗ_ΔΙΟΙΚΗΣΗ": "Αιγαίο",
        "ΠΕΡΙΦΕΡΕΙΑ": "Βόρειο Αιγαίο",
        "ΠΕΡΙΦΕΡΕΙΑΚΗ_ΕΝΟΤΗΤΑ": "Σάμος",
        "ΔΗΜΟΣ": "Δυτικής Σάμου",
        "ΔΗΜΟΤΙΚΗ_ΕΝΟΤΗΤΑ": "Μαραθόκαμπος",
        "ΚΟΙΝΟΤΗΤΑ": "Κουμαίικα",
        "ΕΝΤΟΣ_NATURA2000": "YES",
        "EVENT_CLASS": "Natura High",
        "EVENT_SCORE": 1,
        "NATURA2000_ΚΩΔΙΚΟΣ": "GR4120008",
        "NATURA2000_ΟΝΟΜΑ": "SAMOS: OROS KERKIS",
        "NATURA2000_ΤΥΠΟΣ": "SPA",
        "NATURA2000_ΑΠΟΣΤΑΣΗ_M": 5435,
        "ΑΔΑ_ΚΩΔΙΚΟΣ": "Ρ0Ν646ΝΠΙΘ-ΡΕ0",
        "ΑΔΑ_ΔΙΟΙΚΗΤΙΚΗ_ΜΟΝΑΔΑ": "Δημοτική Κοινότητα Κουμαιίκων (Δ.Ε. Μαραθοκάμπου), Δήμος Δυτικής Σάμου",
        "ΗΜΕΡΟΜΗΝΙΑ_ΣΥΜΒΑΝΤΟΣ": "15/02/2026",
        "ΗΜΕΡΟΜΗΝΙΑ_ΚΗΡΥΞΗΣ": "27/02/2026",
        "ΔΙΑΡΚΕΙΑ_ΕΚΤΑΚΤΗΣ_ΑΝΑΓΚΗΣ": "3 months",
        "ΠΕΡΙΓΡΑΦΗ_ΖΗΜΙΩΝ": "Κήρυξη σε κατάσταση Έκτακτης Ανάγκης Πολιτικής Προστασίας για την αντιμετώπιση παράκτιων πλημμυρών και παράκτιας διάβρωσης που προκλήθηκαν από ισχυρές βροχοπτώσεις και θυελλώδεις ανέμους από τις 15 έως τις 17 Φεβρουαρίου 2026. Διάρκεια ισχύος: 3 μήνες.",
        "SHORT_DAMAGE": "Παράκτιες πλημμύρες και παράκτια διάβρωση από ισχυρές βροχοπτώσεις και θυελλώδεις ανέμους.",
        "IMAGE_PREFIX": "39"
      },
      "geometry": {
        "type": "Point",
        "coordinates": [
          26.7475,
          37.7048
        ]
      }
    },
    {
      "type": "Feature",
      "properties": {
        "EVENT_ID": 40,
        "ΠΑΡΑΚΤΙΑ_ΠΕΡΙΟΧΗ": "Παραλία Σκουραιίκων",
        "ΑΠΟΚΕΝΤΡΩΜΕΝΗ_ΔΙΟΙΚΗΣΗ": "Αιγαίο",
        "ΠΕΡΙΦΕΡΕΙΑ": "Βόρειο Αιγαίο",
        "ΠΕΡΙΦΕΡΕΙΑΚΗ_ΕΝΟΤΗΤΑ": "Σάμος",
        "ΔΗΜΟΣ": "Δυτικής Σάμου",
        "ΔΗΜΟΤΙΚΗ_ΕΝΟΤΗΤΑ": "Μαραθόκαμπος",
        "ΚΟΙΝΟΤΗΤΑ": "Σκουραίικα",
        "ΕΝΤΟΣ_NATURA2000": "YES",
        "EVENT_CLASS": "Natura High",
        "EVENT_SCORE": 1,
        "NATURA2000_ΚΩΔΙΚΟΣ": "GR4120002",
        "NATURA2000_ΟΝΟΜΑ": "SAMOS: OROS AMPELOS (KARVOUNIS)",
        "NATURA2000_ΤΥΠΟΣ": "SCI/SAC",
        "NATURA2000_ΑΠΟΣΤΑΣΗ_M": 6324,
        "ΑΔΑ_ΚΩΔΙΚΟΣ": "Ρ0Ν646ΝΠΙΘ-ΡΕ0",
        "ΑΔΑ_ΔΙΟΙΚΗΤΙΚΗ_ΜΟΝΑΔΑ": "Δημοτική Κοινότητα Σκουραιίκων (Δ.Ε. Μαραθοκάμπου), Δήμος Δυτικής Σάμου",
        "ΗΜΕΡΟΜΗΝΙΑ_ΣΥΜΒΑΝΤΟΣ": "15/02/2026",
        "ΗΜΕΡΟΜΗΝΙΑ_ΚΗΡΥΞΗΣ": "27/02/2026",
        "ΔΙΑΡΚΕΙΑ_ΕΚΤΑΚΤΗΣ_ΑΝΑΓΚΗΣ": "3 months",
        "ΠΕΡΙΓΡΑΦΗ_ΖΗΜΙΩΝ": "Κήρυξη σε κατάσταση Έκτακτης Ανάγκης Πολιτικής Προστασίας για την αντιμετώπιση παράκτιων πλημμυρών και παράκτιας διάβρωσης που προκλήθηκαν από ισχυρές βροχοπτώσεις και θυελλώδεις ανέμους από τις 15 έως τις 17 Φεβρουαρίου 2026. Διάρκεια ισχύος: 3 μήνες.",
        "SHORT_DAMAGE": "Παράκτιες πλημμύρες και παράκτια διάβρωση από ισχυρές βροχοπτώσεις και θυελλώδεις ανέμους.",
        "IMAGE_PREFIX": "40"
      },
      "geometry": {
        "type": "Point",
        "coordinates": [
          26.766,
          37.6925
        ]
      }
    },
    {
      "type": "Feature",
      "properties": {
        "EVENT_ID": 41,
        "ΠΑΡΑΚΤΙΑ_ΠΕΡΙΟΧΗ": "Παραλία Λευκού (Μεσοχώρι)",
        "ΑΠΟΚΕΝΤΡΩΜΕΝΗ_ΔΙΟΙΚΗΣΗ": "Αιγαίο",
        "ΠΕΡΙΦΕΡΕΙΑ": "Νότιο Αιγαίο",
        "ΠΕΡΙΦΕΡΕΙΑΚΗ_ΕΝΟΤΗΤΑ": "Κάρπαθος-Ηρωική Νήσος Κάσος",
        "ΔΗΜΟΣ": "Καρπάθου",
        "ΔΗΜΟΤΙΚΗ_ΕΝΟΤΗΤΑ": "Κάρπαθος",
        "ΚΟΙΝΟΤΗΤΑ": "Μεσοχώρι",
        "ΕΝΤΟΣ_NATURA2000": "YES",
        "EVENT_CLASS": "Natura High",
        "EVENT_SCORE": 1,
        "NATURA2000_ΚΩΔΙΚΟΣ": "GR4210002",
        "NATURA2000_ΟΝΟΜΑ": "KENTRIKI KARPATHOS: KALI LIMNI - LASTOS - KYRA PANAGIA KAI PARAKTIA THALASSIA ZONI",
        "NATURA2000_ΤΥΠΟΣ": "SCI/SAC",
        "NATURA2000_ΑΠΟΣΤΑΣΗ_M": 0,
        "ΑΔΑ_ΚΩΔΙΚΟΣ": "9ΑΓ846ΝΠΙΘ-Ι5Ε",
        "ΑΔΑ_ΔΙΟΙΚΗΤΙΚΗ_ΜΟΝΑΔΑ": "Δημοτική Κοινότητα Μεσοχωρίου (Δ.Ε. Καρπάθου), Δήμος Καρπάθου",
        "ΗΜΕΡΟΜΗΝΙΑ_ΣΥΜΒΑΝΤΟΣ": "20/02/2026",
        "ΗΜΕΡΟΜΗΝΙΑ_ΚΗΡΥΞΗΣ": "12/03/2026",
        "ΔΙΑΡΚΕΙΑ_ΕΚΤΑΚΤΗΣ_ΑΝΑΓΚΗΣ": "3 months",
        "ΠΕΡΙΓΡΑΦΗ_ΖΗΜΙΩΝ": "Κήρυξη σε κατάσταση Έκτακτης Ανάγκης Πολιτικής Προστασίας για την αντιμετώπιση παράκτιας διάβρωσης που προκλήθηκε από θυελλώδεις ανέμους στις 20 Φεβρουαρίου 2026. Διάρκεια ισχύος: 3 μήνες.",
        "SHORT_DAMAGE": "Παράκτια διάβρωση από θυελλώδεις ανέμους.",
        "IMAGE_PREFIX": "41"
      },
      "geometry": {
        "type": "Point",
        "coordinates": [
          27.108,
          35.597
        ]
      }
    },
    {
      "type": "Feature",
      "properties": {
        "EVENT_ID": 42,
        "ΠΑΡΑΚΤΙΑ_ΠΕΡΙΟΧΗ": "Παραλία Σπόων (Αγκώνας)",
        "ΑΠΟΚΕΝΤΡΩΜΕΝΗ_ΔΙΟΙΚΗΣΗ": "Αιγαίο",
        "ΠΕΡΙΦΕΡΕΙΑ": "Νότιο Αιγαίο",
        "ΠΕΡΙΦΕΡΕΙΑΚΗ_ΕΝΟΤΗΤΑ": "Κάρπαθος-Ηρωική Νήσος Κάσος",
        "ΔΗΜΟΣ": "Καρπάθου",
        "ΔΗΜΟΤΙΚΗ_ΕΝΟΤΗΤΑ": "Κάρπαθος",
        "ΚΟΙΝΟΤΗΤΑ": "Σπόα",
        "ΕΝΤΟΣ_NATURA2000": "YES",
        "EVENT_CLASS": "Natura High",
        "EVENT_SCORE": 1,
        "NATURA2000_ΚΩΔΙΚΟΣ": "GR4210002",
        "NATURA2000_ΟΝΟΜΑ": "KENTRIKI KARPATHOS: KALI LIMNI - LASTOS - KYRA PANAGIA KAI PARAKTIA THALASSIA ZONI",
        "NATURA2000_ΤΥΠΟΣ": "SCI/SAC",
        "NATURA2000_ΑΠΟΣΤΑΣΗ_M": 3071,
        "ΑΔΑ_ΚΩΔΙΚΟΣ": "9ΑΓ846ΝΠΙΘ-Ι5Ε",
        "ΑΔΑ_ΔΙΟΙΚΗΤΙΚΗ_ΜΟΝΑΔΑ": "Δημοτική Κοινότητα Σπόων (Δ.Ε. Καρπάθου), Δήμος Καρπάθου",
        "ΗΜΕΡΟΜΗΝΙΑ_ΣΥΜΒΑΝΤΟΣ": "20/02/2026",
        "ΗΜΕΡΟΜΗΝΙΑ_ΚΗΡΥΞΗΣ": "12/03/2026",
        "ΔΙΑΡΚΕΙΑ_ΕΚΤΑΚΤΗΣ_ΑΝΑΓΚΗΣ": "3 months",
        "ΠΕΡΙΓΡΑΦΗ_ΖΗΜΙΩΝ": "Κήρυξη σε κατάσταση Έκτακτης Ανάγκης Πολιτικής Προστασίας για την αντιμετώπιση παράκτιας διάβρωσης που προκλήθηκε από θυελλώδεις ανέμους στις 20 Φεβρουαρίου 2026. Διάρκεια ισχύος: 3 μήνες.",
        "SHORT_DAMAGE": "Παράκτια διάβρωση από θυελλώδεις ανέμους.",
        "IMAGE_PREFIX": "42"
      },
      "geometry": {
        "type": "Point",
        "coordinates": [
          27.1733,
          35.6541
        ]
      }
    },
    {
      "type": "Feature",
      "properties": {
        "EVENT_ID": 43,
        "ΠΑΡΑΚΤΙΑ_ΠΕΡΙΟΧΗ": "Παραλία Αμμοοπής (Μενετές)",
        "ΑΠΟΚΕΝΤΡΩΜΕΝΗ_ΔΙΟΙΚΗΣΗ": "Αιγαίο",
        "ΠΕΡΙΦΕΡΕΙΑ": "Νότιο Αιγαίο",
        "ΠΕΡΙΦΕΡΕΙΑΚΗ_ΕΝΟΤΗΤΑ": "Κάρπαθος-Ηρωική Νήσος Κάσος",
        "ΔΗΜΟΣ": "Καρπάθου",
        "ΔΗΜΟΤΙΚΗ_ΕΝΟΤΗΤΑ": "Κάρπαθος",
        "ΚΟΙΝΟΤΗΤΑ": "Μενετές",
        "ΕΝΤΟΣ_NATURA2000": "YES",
        "EVENT_CLASS": "Natura High",
        "EVENT_SCORE": 1,
        "NATURA2000_ΚΩΔΙΚΟΣ": "GR4210002",
        "NATURA2000_ΟΝΟΜΑ": "KENTRIKI KARPATHOS: KALI LIMNI - LASTOS - KYRA PANAGIA KAI PARAKTIA THALASSIA ZONI",
        "NATURA2000_ΤΥΠΟΣ": "SCI/SAC",
        "NATURA2000_ΑΠΟΣΤΑΣΗ_M": 8454,
        "ΑΔΑ_ΚΩΔΙΚΟΣ": "9ΑΓ846ΝΠΙΘ-Ι5Ε",
        "ΑΔΑ_ΔΙΟΙΚΗΤΙΚΗ_ΜΟΝΑΔΑ": "Δημοτική Κοινότητα Μενετών (Δ.Ε. Καρπάθου), Δήμος Καρπάθου",
        "ΗΜΕΡΟΜΗΝΙΑ_ΣΥΜΒΑΝΤΟΣ": "20/02/2026",
        "ΗΜΕΡΟΜΗΝΙΑ_ΚΗΡΥΞΗΣ": "12/03/2026",
        "ΔΙΑΡΚΕΙΑ_ΕΚΤΑΚΤΗΣ_ΑΝΑΓΚΗΣ": "3 months",
        "ΠΕΡΙΓΡΑΦΗ_ΖΗΜΙΩΝ": "Κήρυξη σε κατάσταση Έκτακτης Ανάγκης Πολιτικής Προστασίας για την αντιμετώπιση παράκτιας διάβρωσης που προκλήθηκε από θυελλώδεις ανέμους στις 20 Φεβρουαρίου 2026. Διάρκεια ισχύος: 3 μήνες.",
        "SHORT_DAMAGE": "Παράκτια διάβρωση από θυελλώδεις ανέμους.",
        "IMAGE_PREFIX": "43"
      },
      "geometry": {
        "type": "Point",
        "coordinates": [
          27.1955,
          35.4691
        ]
      }
    },
    {
      "type": "Feature",
      "properties": {
        "EVENT_ID": 44,
        "ΠΑΡΑΚΤΙΑ_ΠΕΡΙΟΧΗ": "Αμμούδι Οίας",
        "ΑΠΟΚΕΝΤΡΩΜΕΝΗ_ΔΙΟΙΚΗΣΗ": "Αιγαίο",
        "ΠΕΡΙΦΕΡΕΙΑ": "Νότιο Αιγαίο",
        "ΠΕΡΙΦΕΡΕΙΑΚΗ_ΕΝΟΤΗΤΑ": "Θήρα",
        "ΔΗΜΟΣ": "Θήρας",
        "ΔΗΜΟΤΙΚΗ_ΕΝΟΤΗΤΑ": "Οία",
        "ΚΟΙΝΟΤΗΤΑ": "Οία",
        "ΕΝΤΟΣ_NATURA2000": "YES",
        "EVENT_CLASS": "Natura High",
        "EVENT_SCORE": 1,
        "NATURA2000_ΚΩΔΙΚΟΣ": "GR4220003",
        "NATURA2000_ΟΝΟΜΑ": "SANTORINI: NEA KAI PALIA KAMENI - PROFITIS ILIAS",
        "NATURA2000_ΤΥΠΟΣ": "SCI/SAC",
        "NATURA2000_ΑΠΟΣΤΑΣΗ_M": 6556,
        "ΑΔΑ_ΚΩΔΙΚΟΣ": "ΡΡ4846ΝΠΙΘ-ΠΣΧ",
        "ΑΔΑ_ΔΙΟΙΚΗΤΙΚΗ_ΜΟΝΑΔΑ": "Δημοτική Κοινότητα Οίας (Δ.Ε. Οίας), Δήμος Θήρας",
        "ΗΜΕΡΟΜΗΝΙΑ_ΣΥΜΒΑΝΤΟΣ": "13/03/2026",
        "ΗΜΕΡΟΜΗΝΙΑ_ΚΗΡΥΞΗΣ": "13/03/2026",
        "ΔΙΑΡΚΕΙΑ_ΕΚΤΑΚΤΗΣ_ΑΝΑΓΚΗΣ": "2 months",
        "ΠΕΡΙΓΡΑΦΗ_ΖΗΜΙΩΝ": "Κήρυξη σε κατάσταση Έκτακτης Ανάγκης Πολιτικής Προστασίας για την αντιμετώπιση φαινομένων παράκτιας διάβρωσης. Διάρκεια ισχύος: 2 μήνες.",
        "SHORT_DAMAGE": "Φαινόμενα παράκτιας διάβρωσης.",
        "IMAGE_PREFIX": "44"
      },
      "geometry": {
        "type": "Point",
        "coordinates": [
          25.370574,
          36.459962
        ]
      }
    },
    {
      "type": "Feature",
      "properties": {
        "EVENT_ID": 45,
        "ΠΑΡΑΚΤΙΑ_ΠΕΡΙΟΧΗ": "Παραλία Πόρι (Βουρβούλος)",
        "ΑΠΟΚΕΝΤΡΩΜΕΝΗ_ΔΙΟΙΚΗΣΗ": "Αιγαίο",
        "ΠΕΡΙΦΕΡΕΙΑ": "Νότιο Αιγαίο",
        "ΠΕΡΙΦΕΡΕΙΑΚΗ_ΕΝΟΤΗΤΑ": "Θήρα",
        "ΔΗΜΟΣ": "Θήρας",
        "ΔΗΜΟΤΙΚΗ_ΕΝΟΤΗΤΑ": "Θήρα",
        "ΚΟΙΝΟΤΗΤΑ": "Βουρβούλος",
        "ΕΝΤΟΣ_NATURA2000": "YES",
        "EVENT_CLASS": "Natura High",
        "EVENT_SCORE": 1,
        "NATURA2000_ΚΩΔΙΚΟΣ": "GR4220036",
        "NATURA2000_ΟΝΟΜΑ": "THALASSIA PERIOCHI KOLOUMVO",
        "NATURA2000_ΤΥΠΟΣ": "SCI/SAC",
        "NATURA2000_ΑΠΟΣΤΑΣΗ_M": 4019,
        "ΑΔΑ_ΚΩΔΙΚΟΣ": "ΡΡ4846ΝΠΙΘ-ΠΣΧ",
        "ΑΔΑ_ΔΙΟΙΚΗΤΙΚΗ_ΜΟΝΑΔΑ": "Δημοτική Κοινότητα Βουρβούλου (Δ.Ε. Θήρας), Δήμος Θήρας",
        "ΗΜΕΡΟΜΗΝΙΑ_ΣΥΜΒΑΝΤΟΣ": "13/03/2026",
        "ΗΜΕΡΟΜΗΝΙΑ_ΚΗΡΥΞΗΣ": "13/03/2026",
        "ΔΙΑΡΚΕΙΑ_ΕΚΤΑΚΤΗΣ_ΑΝΑΓΚΗΣ": "2 months",
        "ΠΕΡΙΓΡΑΦΗ_ΖΗΜΙΩΝ": "Κήρυξη σε κατάσταση Έκτακτης Ανάγκης Πολιτικής Προστασίας για την αντιμετώπιση φαινομένων παράκτιας διάβρωσης. Διάρκεια ισχύος: 2 μήνες.",
        "SHORT_DAMAGE": "Φαινόμενα παράκτιας διάβρωσης.",
        "IMAGE_PREFIX": "45"
      },
      "geometry": {
        "type": "Point",
        "coordinates": [
          25.4533,
          36.469
        ]
      }
    },
    {
      "type": "Feature",
      "properties": {
        "EVENT_ID": 46,
        "ΠΑΡΑΚΤΙΑ_ΠΕΡΙΟΧΗ": "Σκάρος Ημεροβιγλίου",
        "ΑΠΟΚΕΝΤΡΩΜΕΝΗ_ΔΙΟΙΚΗΣΗ": "Αιγαίο",
        "ΠΕΡΙΦΕΡΕΙΑ": "Νότιο Αιγαίο",
        "ΠΕΡΙΦΕΡΕΙΑΚΗ_ΕΝΟΤΗΤΑ": "Θήρα",
        "ΔΗΜΟΣ": "Θήρας",
        "ΔΗΜΟΤΙΚΗ_ΕΝΟΤΗΤΑ": "Θήρα",
        "ΚΟΙΝΟΤΗΤΑ": "Ημεροβίγλι",
        "ΕΝΤΟΣ_NATURA2000": "YES",
        "EVENT_CLASS": "Natura High",
        "EVENT_SCORE": 1,
        "NATURA2000_ΚΩΔΙΚΟΣ": "GR4220003",
        "NATURA2000_ΟΝΟΜΑ": "SANTORINI: NEA KAI PALIA KAMENI - PROFITIS ILIAS",
        "NATURA2000_ΤΥΠΟΣ": "SCI/SAC",
        "NATURA2000_ΑΠΟΣΤΑΣΗ_M": 3325,
        "ΑΔΑ_ΚΩΔΙΚΟΣ": "ΡΡ4846ΝΠΙΘ-ΠΣΧ",
        "ΑΔΑ_ΔΙΟΙΚΗΤΙΚΗ_ΜΟΝΑΔΑ": "Δημοτική Κοινότητα Ημεροβιγλίου (Δ.Ε. Θήρας), Δήμος Θήρας",
        "ΗΜΕΡΟΜΗΝΙΑ_ΣΥΜΒΑΝΤΟΣ": "13/03/2026",
        "ΗΜΕΡΟΜΗΝΙΑ_ΚΗΡΥΞΗΣ": "13/03/2026",
        "ΔΙΑΡΚΕΙΑ_ΕΚΤΑΚΤΗΣ_ΑΝΑΓΚΗΣ": "2 months",
        "ΠΕΡΙΓΡΑΦΗ_ΖΗΜΙΩΝ": "Κήρυξη σε κατάσταση Έκτακτης Ανάγκης Πολιτικής Προστασίας για την αντιμετώπιση φαινομένων παράκτιας διάβρωσης. Διάρκεια ισχύος: 2 μήνες.",
        "SHORT_DAMAGE": "Φαινόμενα παράκτιας διάβρωσης.",
        "IMAGE_PREFIX": "46"
      },
      "geometry": {
        "type": "Point",
        "coordinates": [
          25.425042,
          36.431215
        ]
      }
    },
    {
      "type": "Feature",
      "properties": {
        "EVENT_ID": 47,
        "ΠΑΡΑΚΤΙΑ_ΠΕΡΙΟΧΗ": "Σκάλα Φηρών",
        "ΑΠΟΚΕΝΤΡΩΜΕΝΗ_ΔΙΟΙΚΗΣΗ": "Αιγαίο",
        "ΠΕΡΙΦΕΡΕΙΑ": "Νότιο Αιγαίο",
        "ΠΕΡΙΦΕΡΕΙΑΚΗ_ΕΝΟΤΗΤΑ": "Θήρα",
        "ΔΗΜΟΣ": "Θήρας",
        "ΔΗΜΟΤΙΚΗ_ΕΝΟΤΗΤΑ": "Θήρα",
        "ΚΟΙΝΟΤΗΤΑ": "Φηρά",
        "ΕΝΤΟΣ_NATURA2000": "YES",
        "EVENT_CLASS": "Natura High",
        "EVENT_SCORE": 1,
        "NATURA2000_ΚΩΔΙΚΟΣ": "GR4220003",
        "NATURA2000_ΟΝΟΜΑ": "SANTORINI: NEA KAI PALIA KAMENI - PROFITIS ILIAS",
        "NATURA2000_ΤΥΠΟΣ": "SCI/SAC",
        "NATURA2000_ΑΠΟΣΤΑΣΗ_M": 2291,
        "ΑΔΑ_ΚΩΔΙΚΟΣ": "ΡΡ4846ΝΠΙΘ-ΠΣΧ",
        "ΑΔΑ_ΔΙΟΙΚΗΤΙΚΗ_ΜΟΝΑΔΑ": "Δημοτική Κοινότητα Θήρας (Δ.Ε. Θήρας), Δήμος Θήρας",
        "ΗΜΕΡΟΜΗΝΙΑ_ΣΥΜΒΑΝΤΟΣ": "13/03/2026",
        "ΗΜΕΡΟΜΗΝΙΑ_ΚΗΡΥΞΗΣ": "13/03/2026",
        "ΔΙΑΡΚΕΙΑ_ΕΚΤΑΚΤΗΣ_ΑΝΑΓΚΗΣ": "2 months",
        "ΠΕΡΙΓΡΑΦΗ_ΖΗΜΙΩΝ": "Κήρυξη σε κατάσταση Έκτακτης Ανάγκης Πολιτικής Προστασίας για την αντιμετώπιση φαινομένων παράκτιας διάβρωσης. Διάρκεια ισχύος: 2 μήνες.",
        "SHORT_DAMAGE": "Φαινόμενα παράκτιας διάβρωσης.",
        "IMAGE_PREFIX": "47"
      },
      "geometry": {
        "type": "Point",
        "coordinates": [
          25.428111,
          36.418224
        ]
      }
    },
    {
      "type": "Feature",
      "properties": {
        "EVENT_ID": 48,
        "ΠΑΡΑΚΤΙΑ_ΠΕΡΙΟΧΗ": "Παραλία Μονόλιθου (Μεσαριά)",
        "ΑΠΟΚΕΝΤΡΩΜΕΝΗ_ΔΙΟΙΚΗΣΗ": "Αιγαίο",
        "ΠΕΡΙΦΕΡΕΙΑ": "Νότιο Αιγαίο",
        "ΠΕΡΙΦΕΡΕΙΑΚΗ_ΕΝΟΤΗΤΑ": "Θήρα",
        "ΔΗΜΟΣ": "Θήρας",
        "ΔΗΜΟΤΙΚΗ_ΕΝΟΤΗΤΑ": "Θήρα",
        "ΚΟΙΝΟΤΗΤΑ": "Μεσαριά",
        "ΕΝΤΟΣ_NATURA2000": "YES",
        "EVENT_CLASS": "Natura High",
        "EVENT_SCORE": 1,
        "NATURA2000_ΚΩΔΙΚΟΣ": "GR4220003",
        "NATURA2000_ΟΝΟΜΑ": "SANTORINI: NEA KAI PALIA KAMENI - PROFITIS ILIAS",
        "NATURA2000_ΤΥΠΟΣ": "SCI/SAC",
        "NATURA2000_ΑΠΟΣΤΑΣΗ_M": 3614,
        "ΑΔΑ_ΚΩΔΙΚΟΣ": "ΡΡ4846ΝΠΙΘ-ΠΣΧ",
        "ΑΔΑ_ΔΙΟΙΚΗΤΙΚΗ_ΜΟΝΑΔΑ": "Δημοτική Κοινότητα Μεσαριάς (Δ.Ε. Θήρας), Δήμος Θήρας",
        "ΗΜΕΡΟΜΗΝΙΑ_ΣΥΜΒΑΝΤΟΣ": "13/03/2026",
        "ΗΜΕΡΟΜΗΝΙΑ_ΚΗΡΥΞΗΣ": "13/03/2026",
        "ΔΙΑΡΚΕΙΑ_ΕΚΤΑΚΤΗΣ_ΑΝΑΓΚΗΣ": "2 months",
        "ΠΕΡΙΓΡΑΦΗ_ΖΗΜΙΩΝ": "Κήρυξη σε κατάσταση Έκτακτης Ανάγκης Πολιτικής Προστασίας για την αντιμετώπιση φαινομένων παράκτιας διάβρωσης. Διάρκεια ισχύος: 2 μήνες.",
        "SHORT_DAMAGE": "Φαινόμενα παράκτιας διάβρωσης.",
        "IMAGE_PREFIX": "48"
      },
      "geometry": {
        "type": "Point",
        "coordinates": [
          25.487,
          36.404
        ]
      }
    },
    {
      "type": "Feature",
      "properties": {
        "EVENT_ID": 49,
        "ΠΑΡΑΚΤΙΑ_ΠΕΡΙΟΧΗ": "Παραλία Περίσσας (Πύργος Καλλίστης)",
        "ΑΠΟΚΕΝΤΡΩΜΕΝΗ_ΔΙΟΙΚΗΣΗ": "Αιγαίο",
        "ΠΕΡΙΦΕΡΕΙΑ": "Νότιο Αιγαίο",
        "ΠΕΡΙΦΕΡΕΙΑΚΗ_ΕΝΟΤΗΤΑ": "Θήρα",
        "ΔΗΜΟΣ": "Θήρας",
        "ΔΗΜΟΤΙΚΗ_ΕΝΟΤΗΤΑ": "Θήρα",
        "ΚΟΙΝΟΤΗΤΑ": "Πύργος Καλλίστης",
        "ΕΝΤΟΣ_NATURA2000": "YES",
        "EVENT_CLASS": "Natura High",
        "EVENT_SCORE": 1,
        "NATURA2000_ΚΩΔΙΚΟΣ": "GR4220003",
        "NATURA2000_ΟΝΟΜΑ": "SANTORINI: NEA KAI PALIA KAMENI - PROFITIS ILIAS",
        "NATURA2000_ΤΥΠΟΣ": "SCI/SAC",
        "NATURA2000_ΑΠΟΣΤΑΣΗ_M": 290,
        "ΑΔΑ_ΚΩΔΙΚΟΣ": "ΡΡ4846ΝΠΙΘ-ΠΣΧ",
        "ΑΔΑ_ΔΙΟΙΚΗΤΙΚΗ_ΜΟΝΑΔΑ": "Δημοτική Κοινότητα Πύργου (Δ.Ε. Θήρας), Δήμος Θήρας",
        "ΗΜΕΡΟΜΗΝΙΑ_ΣΥΜΒΑΝΤΟΣ": "13/03/2026",
        "ΗΜΕΡΟΜΗΝΙΑ_ΚΗΡΥΞΗΣ": "13/03/2026",
        "ΔΙΑΡΚΕΙΑ_ΕΚΤΑΚΤΗΣ_ΑΝΑΓΚΗΣ": "2 months",
        "ΠΕΡΙΓΡΑΦΗ_ΖΗΜΙΩΝ": "Κήρυξη σε κατάσταση Έκτακτης Ανάγκης Πολιτικής Προστασίας για την αντιμετώπιση φαινομένων παράκτιας διάβρωσης. Διάρκεια ισχύος: 2 μήνες.",
        "SHORT_DAMAGE": "Φαινόμενα παράκτιας διάβρωσης.",
        "IMAGE_PREFIX": "49"
      },
      "geometry": {
        "type": "Point",
        "coordinates": [
          25.4775,
          36.3553
        ]
      }
    },
    {
      "type": "Feature",
      "properties": {
        "EVENT_ID": 50,
        "ΠΑΡΑΚΤΙΑ_ΠΕΡΙΟΧΗ": "Παραλία Καλαμίτσας (Καβάλα)",
        "ΑΠΟΚΕΝΤΡΩΜΕΝΗ_ΔΙΟΙΚΗΣΗ": "Μακεδονία-Θράκη",
        "ΠΕΡΙΦΕΡΕΙΑ": "Ανατολική Μακεδονία και Θράκη",
        "ΠΕΡΙΦΕΡΕΙΑΚΗ_ΕΝΟΤΗΤΑ": "Καβάλα",
        "ΔΗΜΟΣ": "Καβάλας",
        "ΔΗΜΟΤΙΚΗ_ΕΝΟΤΗΤΑ": "",
        "ΚΟΙΝΟΤΗΤΑ": "",
        "ΕΝΤΟΣ_NATURA2000": "YES",
        "EVENT_CLASS": "Natura High",
        "EVENT_SCORE": 1,
        "NATURA2000_ΚΩΔΙΚΟΣ": "GR1150014",
        "NATURA2000_ΟΝΟΜΑ": "THALASSIA PERIOCHI KAVALAS - THASOU",
        "NATURA2000_ΤΥΠΟΣ": "SPA+SCI/SAC",
        "NATURA2000_ΑΠΟΣΤΑΣΗ_M": 72,
        "ΑΔΑ_ΚΩΔΙΚΟΣ": "ΨΔΓΦ46ΝΠΙΘ-9Γ1",
        "ΑΔΑ_ΔΙΟΙΚΗΤΙΚΗ_ΜΟΝΑΔΑ": "Δήμος Καβάλας",
        "ΗΜΕΡΟΜΗΝΙΑ_ΣΥΜΒΑΝΤΟΣ": "09/02/2026",
        "ΗΜΕΡΟΜΗΝΙΑ_ΚΗΡΥΞΗΣ": "19/03/2026",
        "ΔΙΑΡΚΕΙΑ_ΕΚΤΑΚΤΗΣ_ΑΝΑΓΚΗΣ": "3 months",
        "ΠΕΡΙΓΡΑΦΗ_ΖΗΜΙΩΝ": "Κήρυξη σε κατάσταση Έκτακτης Ανάγκης Πολιτικής Προστασίας για την αντιμετώπιση παράκτιας διάβρωσης που προκλήθηκε από θυελλώδεις ανέμους στις 9 και 10 Φεβρουαρίου 2026. Διάρκεια ισχύος: 3 μήνες.",
        "SHORT_DAMAGE": "Παράκτια διάβρωση από θυελλώδεις ανέμους.",
        "IMAGE_PREFIX": "50"
      },
      "geometry": {
        "type": "Point",
        "coordinates": [
          24.383041,
          40.920627
        ]
      }
    },
    {
      "type": "Feature",
      "properties": {
        "EVENT_ID": 51,
        "ΠΑΡΑΚΤΙΑ_ΠΕΡΙΟΧΗ": "Παραλία Ξι",
        "ΑΠΟΚΕΝΤΡΩΜΕΝΗ_ΔΙΟΙΚΗΣΗ": "Πελοπόννησος, Δυτική Ελλάδα και Ιόνιο",
        "ΠΕΡΙΦΕΡΕΙΑ": "Ιόνια Νησιά",
        "ΠΕΡΙΦΕΡΕΙΑΚΗ_ΕΝΟΤΗΤΑ": "Κεφαλληνία & Ιθάκη",
        "ΔΗΜΟΣ": "Ληξουρίου",
        "ΔΗΜΟΤΙΚΗ_ΕΝΟΤΗΤΑ": "Παλική",
        "ΚΟΙΝΟΤΗΤΑ": "",
        "ΕΝΤΟΣ_NATURA2000": "YES",
        "EVENT_CLASS": "Natura High",
        "EVENT_SCORE": 1,
        "NATURA2000_ΚΩΔΙΚΟΣ": "GR2220005",
        "NATURA2000_ΟΝΟΜΑ": "DYTIKES AKTES KEFALONIAS - STENO KEFALONIAS ITHAKIS - VOREIA ITHAKI (AKROTIRIA GERO GKOMPOS - DRAKOU PIDIMA - KENTRI - AG. IOANNIS)",
        "NATURA2000_ΤΥΠΟΣ": "SCI/SAC",
        "NATURA2000_ΑΠΟΣΤΑΣΗ_M": 6083,
        "ΑΔΑ_ΚΩΔΙΚΟΣ": "ΨΙΓ246ΝΠΙΘ-24Φ",
        "ΑΔΑ_ΔΙΟΙΚΗΤΙΚΗ_ΜΟΝΑΔΑ": "Δ.Ε. Παλικής, Δήμος Ληξουρίου",
        "ΗΜΕΡΟΜΗΝΙΑ_ΣΥΜΒΑΝΤΟΣ": "04/03/2026",
        "ΗΜΕΡΟΜΗΝΙΑ_ΚΗΡΥΞΗΣ": "04/03/2026",
        "ΔΙΑΡΚΕΙΑ_ΕΚΤΑΚΤΗΣ_ΑΝΑΓΚΗΣ": "3 months",
        "ΠΕΡΙΓΡΑΦΗ_ΖΗΜΙΩΝ": "Κήρυξη σε κατάσταση Έκτακτης Ανάγκης Πολιτικής Προστασίας για την αντιμετώπιση παράκτιας διάβρωσης που προκλήθηκε από έντονα καιρικά φαινόμενα κατά το προηγούμενο διάστημα του Φεβρουαρίου 2026. Διάρκεια ισχύος: 3 μήνες.",
        "SHORT_DAMAGE": "Παράκτια διάβρωση από έντονα καιρικά φαινόμενα.",
        "IMAGE_PREFIX": "51"
      },
      "geometry": {
        "type": "Point",
        "coordinates": [
          20.414687,
          38.160595
        ]
      }
    }
  ]
}